{
"type": "FeatureCollection",
"name": "todas_lineas",
"crs": { "type": "name", "properties": { "name": "urn:ogc:def:crs:OGC:1.3:CRS84" } },
"features": [
{ "type": "Feature", "properties": { "id": "linea_102.13", "nombre": "Linea 102", "longitud": 12.61, "source_file": "linea_102" }, "geometry": { "type": "MultiLineString", "coordinates": [ [ [ -63.2467273, -32.4096915, 0.0 ], [ -63.2473241, -32.4089261, 0.0 ], [ -63.248055, -32.4080928, 0.0 ], [ -63.2425043, -32.4045501, 0.0 ], [ -63.2441666, -32.4026744, 0.0 ], [ -63.2450135, -32.4016139, 0.0 ], [ -63.2452655, -32.4014735, 0.0 ], [ -63.2454103, -32.4013083, 0.0 ], [ -63.2476742, -32.3987503, 0.0 ], [ -63.2480014, -32.3989598, 0.0 ], [ -63.2487364, -32.3994308, 0.0 ], [ -63.2494216, -32.3998657, 0.0 ], [ -63.2502437, -32.4003955, 0.0 ], [ -63.2508881, -32.4008173, 0.0 ], [ -63.2519188, -32.4014588, 0.0 ], [ -63.2520864, -32.4016004, 0.0 ], [ -63.2530493, -32.4021666, 0.0 ], [ -63.2531781, -32.4023137, 0.0 ], [ -63.2533819, -32.4023273, 0.0 ], [ -63.2536233, -32.4022163, 0.0 ], [ -63.2537682, -32.4020918, 0.0 ], [ -63.2550088, -32.4007585, 0.0 ], [ -63.2566785, -32.3988409, 0.0 ], [ -63.2595966, -32.3955502, 0.0 ], [ -63.2593163, -32.3953849, 0.0 ], [ -63.2606534, -32.3938618, 0.0 ], [ -63.2610477, -32.3939071, 0.0 ], [ -63.2628072, -32.3919344, 0.0 ], [ -63.2658837, -32.3884374, 0.0 ], [ -63.2629951, -32.3864556, 0.0 ], [ -63.2620001, -32.385801, 0.0 ], [ -63.2598838, -32.3844668, 0.0 ], [ -63.2596045, -32.3842539, 0.0 ], [ -63.2610718, -32.3825121, 0.0 ], [ -63.2608814, -32.382374, 0.0 ], [ -63.2593646, -32.3841496, 0.0 ], [ -63.2585602, -32.3835953, 0.0 ], [ -63.2577237, -32.3830409, 0.0 ], [ -63.256855, -32.382482, 0.0 ], [ -63.2561017, -32.3820341, 0.0 ], [ -63.2560011, -32.3820047, 0.0 ], [ -63.2558925, -32.3820228, 0.0 ], [ -63.2541867, -32.3838971, 0.0 ], [ -63.2525559, -32.3857171, 0.0 ], [ -63.2508875, -32.3876016, 0.0 ], [ -63.2491923, -32.3894589, 0.0 ], [ -63.2467515, -32.3921677, 0.0 ], [ -63.2462043, -32.3927611, 0.0 ], [ -63.2456417, -32.3934224, 0.0 ], [ -63.2453698, -32.393722, 0.0 ], [ -63.2451193, -32.3940283, 0.0 ], [ -63.245069, -32.39412, 0.0 ], [ -63.2450053, -32.3942786, 0.0 ], [ -63.2433397, -32.395198, 0.0 ], [ -63.2436026, -32.3960621, 0.0 ], [ -63.2436572, -32.3962615, 0.0 ], [ -63.2437199, -32.3962843, 0.0 ], [ -63.2437853, -32.3962822, 0.0 ], [ -63.24384, -32.3963163, 0.0 ], [ -63.2442892, -32.3965931, 0.0 ], [ -63.2469151, -32.3983019, 0.0 ], [ -63.247481, -32.3986155, 0.0 ], [ -63.2452388, -32.4011406, 0.0 ], [ -63.2451583, -32.4012256, 0.0 ], [ -63.2450161, -32.4012177, 0.0 ], [ -63.2448847, -32.401306, 0.0 ], [ -63.24489, -32.4014305, 0.0 ], [ -63.2448846, -32.4015211, 0.0 ], [ -63.2328335, -32.4150331, 0.0 ], [ -63.2353723, -32.4166357, 0.0 ], [ -63.237946, -32.4182406, 0.0 ], [ -63.2386213, -32.4177647, 0.0 ], [ -63.239479, -32.4170987, 0.0 ], [ -63.2411145, -32.4157625, 0.0 ], [ -63.2418613, -32.4151341, 0.0 ], [ -63.2425222, -32.4144423, 0.0 ], [ -63.2446289, -32.4120907, 0.0 ], [ -63.2456339, -32.4109103, 0.0 ], [ -63.2460639, -32.4104696, 0.0 ], [ -63.2466764, -32.4097617, 0.0 ] ] ] } },
{ "type": "Feature", "properties": { "id": "linea_103.12", "nombre": "Linea 103", "longitud": 12.62, "source_file": "linea_103" }, "geometry": { "type": "MultiLineString", "coordinates": [ [ [ -63.2461292, -32.4103527, 0.0 ], [ -63.2416231, -32.4153343, 0.0 ], [ -63.2379538, -32.4182325, 0.0 ], [ -63.2329757, -32.4150988, 0.0 ], [ -63.2329944, -32.4148927, 0.0 ], [ -63.2448847, -32.401512, 0.0 ], [ -63.2449276, -32.4012946, 0.0 ], [ -63.2452065, -32.4012222, 0.0 ], [ -63.2475454, -32.398577, 0.0 ], [ -63.2480604, -32.3977799, 0.0 ], [ -63.2486827, -32.397345, 0.0 ], [ -63.2489187, -32.3966566, 0.0 ], [ -63.2492191, -32.3964391, 0.0 ], [ -63.2494981, -32.3958775, 0.0 ], [ -63.2502062, -32.3950803, 0.0 ], [ -63.2565362, -32.3989394, 0.0 ], [ -63.259433, -32.395497, 0.0 ], [ -63.2593364, -32.3953249, 0.0 ], [ -63.2606561, -32.3937667, 0.0 ], [ -63.2624907, -32.3918461, 0.0 ], [ -63.2632739, -32.3913478, 0.0 ], [ -63.2658274, -32.3884125, 0.0 ], [ -63.2629951, -32.3864556, 0.0 ], [ -63.261933, -32.3858576, 0.0 ], [ -63.2597175, -32.3845076, 0.0 ], [ -63.2595187, -32.3842992, 0.0 ], [ -63.2610718, -32.3825121, 0.0 ], [ -63.2608814, -32.382374, 0.0 ], [ -63.2593257, -32.3842176, 0.0 ], [ -63.2560534, -32.3821066, 0.0 ], [ -63.2527812, -32.3857896, 0.0 ], [ -63.2493264, -32.3895812, 0.0 ], [ -63.2469339, -32.39229, 0.0 ], [ -63.2464296, -32.3928517, 0.0 ], [ -63.2451743, -32.3942378, 0.0 ], [ -63.2435006, -32.3951618, 0.0 ], [ -63.243844, -32.3963395, 0.0 ], [ -63.2477063, -32.3986948, 0.0 ], [ -63.2452924, -32.4013037, 0.0 ], [ -63.2452387, -32.4014849, 0.0 ], [ -63.2450563, -32.4015483, 0.0 ], [ -63.2424599, -32.4045466, 0.0 ], [ -63.2480282, -32.4080792, 0.0 ], [ -63.2462043, -32.4102621, 0.0 ] ] ] } },
{ "type": "Feature", "properties": { "id": "linea_104.11", "nombre": "Linea 104", "longitud": 9.0, "source_file": "linea_104" }, "geometry": { "type": "MultiLineString", "coordinates": [ [ [ -63.2332849, -32.4145569, 0.0 ], [ -63.2449096, -32.4014774, 0.0 ], [ -63.2448989, -32.4013279, 0.0 ], [ -63.2449686, -32.4012283, 0.0 ], [ -63.2450813, -32.4012147, 0.0 ], [ -63.2452047, -32.4012509, 0.0 ], [ -63.2475436, -32.3985741, 0.0 ], [ -63.2479459, -32.3978811, 0.0 ], [ -63.2486272, -32.3973466, 0.0 ], [ -63.2486218, -32.3972741, 0.0 ], [ -63.2486647, -32.39717, 0.0 ], [ -63.2487506, -32.3971337, 0.0 ], [ -63.2488203, -32.3968801, 0.0 ], [ -63.2488954, -32.3968076, 0.0 ], [ -63.2489061, -32.3966989, 0.0 ], [ -63.2489866, -32.3966219, 0.0 ], [ -63.2490349, -32.3965811, 0.0 ], [ -63.2493836, -32.3960195, 0.0 ], [ -63.2529777, -32.3917661, 0.0 ], [ -63.2529992, -32.3916665, 0.0 ], [ -63.2530635, -32.3915759, 0.0 ], [ -63.2531869, -32.3915261, 0.0 ], [ -63.260504, -32.3828557, 0.0 ], [ -63.2609734, -32.3824117, 0.0 ], [ -63.2610458, -32.3824616, 0.0 ], [ -63.2611316, -32.382525, 0.0 ], [ -63.2593077, -32.3846315, 0.0 ], [ -63.2536483, -32.3913857, 0.0 ], [ -63.25338, -32.3916846, 0.0 ], [ -63.2533479, -32.391816, 0.0 ], [ -63.253203, -32.3919111, 0.0 ], [ -63.2491797, -32.3967533, 0.0 ], [ -63.2491368, -32.3968393, 0.0 ], [ -63.2490671, -32.3969027, 0.0 ], [ -63.2489812, -32.3973194, 0.0 ], [ -63.2489168, -32.3974146, 0.0 ], [ -63.2487827, -32.3974689, 0.0 ], [ -63.2484555, -32.3980804, 0.0 ], [ -63.2477045, -32.3986964, 0.0 ], [ -63.2452798, -32.4013823, 0.0 ], [ -63.245253, -32.4014729, 0.0 ], [ -63.2451618, -32.4015363, 0.0 ], [ -63.245033, -32.4015589, 0.0 ], [ -63.243649, -32.4032393, 0.0 ], [ -63.241058, -32.4061424, 0.0 ], [ -63.2333118, -32.4149509, 0.0 ], [ -63.2331455, -32.4149826, 0.0 ], [ -63.2330006, -32.4149464, 0.0 ], [ -63.2332206, -32.4146701, 0.0 ] ] ] } },
{ "type": "Feature", "properties": { "id": "linea_12.1", "nombre": "Linea 12", "longitud": 11.57, "source_file": "linea_12" }, "geometry": { "type": "MultiLineString", "coordinates": [ [ [ -63.2461773, -32.4103967, 0.0 ], [ -63.2455336, -32.4109492, 0.0 ], [ -63.2423471, -32.4089022, 0.0 ], [ -63.2422064, -32.4088016, 0.0 ], [ -63.2432793, -32.4076332, 0.0 ], [ -63.2439112, -32.4069128, 0.0 ], [ -63.2381581, -32.4032584, 0.0 ], [ -63.2416333, -32.3992885, 0.0 ], [ -63.2418418, -32.3994023, 0.0 ], [ -63.2433438, -32.397654, 0.0 ], [ -63.2341256, -32.3917625, 0.0 ], [ -63.2264867, -32.4002916, 0.0 ], [ -63.2218465, -32.3973385, 0.0 ], [ -63.2209024, -32.3967497, 0.0 ], [ -63.2226673, -32.3948608, 0.0 ], [ -63.2235953, -32.3954633, 0.0 ], [ -63.2219506, -32.3973427, 0.0 ], [ -63.2270044, -32.400541, 0.0 ], [ -63.2242714, -32.4035968, 0.0 ], [ -63.2204055, -32.4011699, 0.0 ], [ -63.2169173, -32.4050603, 0.0 ], [ -63.2207207, -32.4074878, 0.0 ], [ -63.2242135, -32.4036273, 0.0 ], [ -63.2245193, -32.4037405, 0.0 ], [ -63.2287128, -32.4064654, 0.0 ], [ -63.2315338, -32.4035391, 0.0 ], [ -63.2388332, -32.4082852, 0.0 ], [ -63.2406632, -32.4063072, 0.0 ], [ -63.2464246, -32.4099938, 0.0 ] ] ] } },
{ "type": "Feature", "properties": { "id": "linea_13.2", "nombre": "Linea 13", "longitud": 10.38, "source_file": "linea_13" }, "geometry": { "type": "MultiLineString", "coordinates": [ [ [ -63.2468143, -32.4096722, 0.0 ], [ -63.2454839, -32.4110852, 0.0 ], [ -63.2422652, -32.4088751, 0.0 ], [ -63.2430484, -32.4078742, 0.0 ], [ -63.2439014, -32.4069254, 0.0 ], [ -63.232974, -32.3999799, 0.0 ], [ -63.2303992, -32.4027338, 0.0 ], [ -63.2210006, -32.3967596, 0.0 ], [ -63.2226435, -32.3948934, 0.0 ], [ -63.22364, -32.3955411, 0.0 ], [ -63.2237311, -32.395566, 0.0 ], [ -63.2282, -32.3983917, 0.0 ], [ -63.2341194, -32.3917656, 0.0 ], [ -63.2362342, -32.3932038, 0.0 ], [ -63.2362449, -32.3931132, 0.0 ], [ -63.2406763, -32.3880739, 0.0 ], [ -63.2409392, -32.3876158, 0.0 ], [ -63.2421597, -32.3873098, 0.0 ], [ -63.2424158, -32.3879994, 0.0 ], [ -63.2420826, -32.3880905, 0.0 ], [ -63.2419134, -32.3876739, 0.0 ], [ -63.2418128, -32.3875199, 0.0 ], [ -63.2411113, -32.3876921, 0.0 ], [ -63.2420068, -32.389613, 0.0 ], [ -63.2422159, -32.3900081, 0.0 ], [ -63.2424089, -32.3900856, 0.0 ], [ -63.2425215, -32.3902401, 0.0 ], [ -63.2424558, -32.3904247, 0.0 ], [ -63.2422251, -32.3905333, 0.0 ], [ -63.2420838, -32.3904944, 0.0 ], [ -63.241921, -32.3903627, 0.0 ], [ -63.2417549, -32.3905485, 0.0 ], [ -63.2415995, -32.390705, 0.0 ], [ -63.239068, -32.3935934, 0.0 ], [ -63.2410958, -32.3948526, 0.0 ], [ -63.2395134, -32.3965647, 0.0 ], [ -63.2415867, -32.397901, 0.0 ], [ -63.2408203, -32.3987559, 0.0 ], [ -63.2405524, -32.3985991, 0.0 ], [ -63.2395174, -32.3997376, 0.0 ], [ -63.2378933, -32.4016004, 0.0 ], [ -63.2480465, -32.408078, 0.0 ], [ -63.2468581, -32.4095026, 0.0 ] ] ] } },
{ "type": "Feature", "properties": { "id": "linea_14.3", "nombre": "Linea14", "longitud": 9.78, "source_file": "linea_14" }, "geometry": { "type": "MultiLineString", "coordinates": [ [ [ -63.2466532, -32.4097043, 0.0 ], [ -63.2420934, -32.414781, 0.0 ], [ -63.2365728, -32.4112749, 0.0 ], [ -63.2364715, -32.4112871, 0.0 ], [ -63.2364023, -32.4113672, 0.0 ], [ -63.2337274, -32.4096766, 0.0 ], [ -63.2328675, -32.4091437, 0.0 ], [ -63.2307951, -32.4078047, 0.0 ], [ -63.2242621, -32.4035903, 0.0 ], [ -63.2235111, -32.4044372, 0.0 ], [ -63.2229532, -32.4050848, 0.0 ], [ -63.2207968, -32.4074943, 0.0 ], [ -63.220947, -32.4076211, 0.0 ], [ -63.2223847, -32.4085812, 0.0 ], [ -63.2187796, -32.4085993, 0.0 ], [ -63.2161618, -32.4086174, 0.0 ], [ -63.2161189, -32.4078384, 0.0 ], [ -63.2147885, -32.4067696, 0.0 ], [ -63.2118918, -32.4068058, 0.0 ], [ -63.2118918, -32.4056011, 0.0 ], [ -63.211924, -32.4037804, 0.0 ], [ -63.2144077, -32.4037714, 0.0 ], [ -63.2144023, -32.4044145, 0.0 ], [ -63.2158292, -32.4044145, 0.0 ], [ -63.2166555, -32.4049399, 0.0 ], [ -63.2194771, -32.4019235, 0.0 ], [ -63.2235111, -32.4044372, 0.0 ], [ -63.2242621, -32.4035903, 0.0 ], [ -63.2362623, -32.4112057, 0.0 ], [ -63.2422651, -32.4044236, 0.0 ], [ -63.2479728, -32.4080921, 0.0 ], [ -63.2467176, -32.4096228, 0.0 ] ] ] } },
{ "type": "Feature", "properties": { "id": "linea_15.4", "nombre": "Linea 15", "longitud": 12.83, "source_file": "linea_15" }, "geometry": { "type": "MultiLineString", "coordinates": [ [ [ -63.2463853, -32.4100393, 0.0 ], [ -63.2455663, -32.4108874, 0.0 ], [ -63.2411674, -32.4080977, 0.0 ], [ -63.2360002, -32.4138413, 0.0 ], [ -63.2348146, -32.4130658, 0.0 ], [ -63.2336036, -32.4122823, 0.0 ], [ -63.231195, -32.4107493, 0.0 ], [ -63.2249884, -32.4178072, 0.0 ], [ -63.2208685, -32.4151806, 0.0 ], [ -63.2192377, -32.4169377, 0.0 ], [ -63.2134012, -32.4187491, 0.0 ], [ -63.2113896, -32.4193332, 0.0 ], [ -63.2111964, -32.419392, 0.0 ], [ -63.2110677, -32.4195075, 0.0 ], [ -63.2109819, -32.4196106, 0.0 ], [ -63.2109604, -32.4197566, 0.0 ], [ -63.2109851, -32.4217892, 0.0 ], [ -63.2051698, -32.4217829, 0.0 ], [ -63.2051698, -32.4227971, 0.0 ], [ -63.2098822, -32.4227899, 0.0 ], [ -63.2098581, -32.4217484, 0.0 ], [ -63.211057, -32.4217518, 0.0 ], [ -63.2109267, -32.4156122, 0.0 ], [ -63.2109911, -32.4150778, 0.0 ], [ -63.2110018, -32.4135471, 0.0 ], [ -63.2132763, -32.4135471, 0.0 ], [ -63.2133085, -32.4187097, 0.0 ], [ -63.2194454, -32.4167534, 0.0 ], [ -63.2222409, -32.4185912, 0.0 ], [ -63.2280266, -32.4120676, 0.0 ], [ -63.2255113, -32.4104458, 0.0 ], [ -63.2252622, -32.4104727, 0.0 ], [ -63.2250024, -32.4104, 0.0 ], [ -63.2252307, -32.4102729, 0.0 ], [ -63.225459, -32.4102364, 0.0 ], [ -63.2288231, -32.406495, 0.0 ], [ -63.2362313, -32.4112549, 0.0 ], [ -63.2406302, -32.4063275, 0.0 ], [ -63.2464604, -32.4099533, 0.0 ] ] ] } },
{ "type": "Feature", "properties": { "id": "linea_16.5", "nombre": "Linea 16", "longitud": 9.41, "source_file": "linea_16" }, "geometry": { "type": "MultiLineString", "coordinates": [ [ [ -63.2463164, -32.4101341, 0.0 ], [ -63.2419981, -32.4149684, 0.0 ], [ -63.2411251, -32.4157553, 0.0 ], [ -63.2402064, -32.4164946, 0.0 ], [ -63.2348473, -32.413157, 0.0 ], [ -63.2340051, -32.4142009, 0.0 ], [ -63.2333319, -32.4149266, 0.0 ], [ -63.2330342, -32.4151451, 0.0 ], [ -63.2254328, -32.4105122, 0.0 ], [ -63.2250036, -32.4105122, 0.0 ], [ -63.2221927, -32.4086282, 0.0 ], [ -63.216206, -32.4086282, 0.0 ], [ -63.2161845, -32.407976, 0.0 ], [ -63.2148112, -32.4068529, 0.0 ], [ -63.2119145, -32.4068529, 0.0 ], [ -63.2119038, -32.4085467, 0.0 ], [ -63.2111635, -32.4086463, 0.0 ], [ -63.2111313, -32.4115087, 0.0 ], [ -63.2109274, -32.4125954, 0.0 ], [ -63.2109489, -32.413474, 0.0 ], [ -63.2142426, -32.4134831, 0.0 ], [ -63.2188346, -32.4085014, 0.0 ], [ -63.2224394, -32.4084924, 0.0 ], [ -63.2250251, -32.4101771, 0.0 ], [ -63.2254113, -32.4102677, 0.0 ], [ -63.232959, -32.4149231, 0.0 ], [ -63.2355447, -32.412052, 0.0 ], [ -63.238007, -32.4135736, 0.0 ], [ -63.2430818, -32.407813, 0.0 ], [ -63.2464238, -32.410005, 0.0 ] ] ] } },
{ "type": "Feature", "properties": { "id": "linea_16_b.7", "nombre": "Linea 16 B", "longitud": 11.99, "source_file": "linea_16_b" }, "geometry": { "type": "MultiLineString", "coordinates": [ [ [ -63.2471867, -32.4090685, 0.0 ], [ -63.2442041, -32.4125919, 0.0 ], [ -63.2420261, -32.4149378, 0.0 ], [ -63.2401807, -32.4164956, 0.0 ], [ -63.2346983, -32.4130176, 0.0 ], [ -63.23487, -32.4131354, 0.0 ], [ -63.2332177, -32.4149921, 0.0 ], [ -63.2328637, -32.4150646, 0.0 ], [ -63.2293285, -32.4129271, 0.0 ], [ -63.2256988, -32.410622, 0.0 ], [ -63.2254917, -32.4104634, 0.0 ], [ -63.2252268, -32.4104708, 0.0 ], [ -63.2251081, -32.4104589, 0.0 ], [ -63.2250075, -32.4104176, 0.0 ], [ -63.2249673, -32.4103276, 0.0 ], [ -63.2223494, -32.4086338, 0.0 ], [ -63.2222314, -32.4084345, 0.0 ], [ -63.2167168, -32.40492, 0.0 ], [ -63.2164432, -32.4049789, 0.0 ], [ -63.2159658, -32.4050015, 0.0 ], [ -63.2144745, -32.4049925, 0.0 ], [ -63.2144691, -32.4067996, 0.0 ], [ -63.2149492, -32.4068245, 0.0 ], [ -63.2162233, -32.4079454, 0.0 ], [ -63.2162661, -32.4085364, 0.0 ], [ -63.2187311, -32.4085522, 0.0 ], [ -63.2187103, -32.4087153, 0.0 ], [ -63.2182068, -32.4093312, 0.0 ], [ -63.2143564, -32.4135973, 0.0 ], [ -63.2139166, -32.4125467, 0.0 ], [ -63.211009, -32.4125467, 0.0 ], [ -63.2109876, -32.4135611, 0.0 ], [ -63.2143564, -32.4135973, 0.0 ], [ -63.2161911, -32.4179085, 0.0 ], [ -63.2192595, -32.4169756, 0.0 ], [ -63.2251604, -32.4102732, 0.0 ], [ -63.2254715, -32.4102823, 0.0 ], [ -63.2256378, -32.4104861, 0.0 ], [ -63.2404007, -32.4195659, 0.0 ], [ -63.2445262, -32.4147645, 0.0 ], [ -63.2465807, -32.4123649, 0.0 ], [ -63.2487102, -32.4099924, 0.0 ], [ -63.2471867, -32.4090685, 0.0 ], [ -63.245513, -32.4109344, 0.0 ], [ -63.2459422, -32.4104997, 0.0 ], [ -63.245513, -32.4109344, 0.0 ], [ -63.2459422, -32.4104997, 0.0 ], [ -63.245513, -32.4109344, 0.0 ], [ -63.2459422, -32.4104997, 0.0 ], [ -63.2461031, -32.4103728, 0.0 ], [ -63.2459422, -32.4104997, 0.0 ] ] ] } },
{ "type": "Feature", "properties": { "id": "linea_17.6", "nombre": "Linea 17", "longitud": 12.04, "source_file": "linea_17" }, "geometry": { "type": "MultiLineString", "coordinates": [ [ [ -63.2468764, -32.4094687, 0.0 ], [ -63.2420913, -32.414885, 0.0 ], [ -63.2379715, -32.418218, 0.0 ], [ -63.2342378, -32.4159175, 0.0 ], [ -63.229088, -32.4216958, 0.0 ], [ -63.2276718, -32.420772, 0.0 ], [ -63.2252685, -32.4227825, 0.0 ], [ -63.2240669, -32.4247387, 0.0 ], [ -63.2178227, -32.4280532, 0.0 ], [ -63.2121793, -32.4279988, 0.0 ], [ -63.212131, -32.4310597, 0.0 ], [ -63.2086871, -32.4310869, 0.0 ], [ -63.2087247, -32.42367, 0.0 ], [ -63.2259122, -32.4183991, 0.0 ], [ -63.2309763, -32.4215871, 0.0 ], [ -63.2354824, -32.4164428, 0.0 ], [ -63.2404176, -32.4196128, 0.0 ], [ -63.2439581, -32.4155553, 0.0 ], [ -63.2489042, -32.409994, 0.0 ], [ -63.2472144, -32.4090611, 0.0 ], [ -63.2455246, -32.4109179, 0.0 ], [ -63.2468764, -32.4094687, 0.0 ], [ -63.2455246, -32.4109179, 0.0 ], [ -63.2468764, -32.4094687, 0.0 ], [ -63.2463614, -32.4099759, 0.0 ] ] ] } },
{ "type": "Feature", "properties": { "id": "linea_17_b.8", "nombre": "Linea 17 B", "longitud": 10.93, "source_file": "linea_17_b" }, "geometry": { "type": "MultiLineString", "coordinates": [ [ [ -63.2468628, -32.4095147, 0.0 ], [ -63.2418189, -32.4151213, 0.0 ], [ -63.2379994, -32.4182187, 0.0 ], [ -63.2341987, -32.4159137, 0.0 ], [ -63.2291374, -32.4217146, 0.0 ], [ -63.2277212, -32.4208271, 0.0 ], [ -63.2252455, -32.4228082, 0.0 ], [ -63.224009, -32.4247394, 0.0 ], [ -63.2209393, -32.4264414, 0.0 ], [ -63.217907, -32.4280437, 0.0 ], [ -63.2177092, -32.4280089, 0.0 ], [ -63.217502, -32.4280081, 0.0 ], [ -63.2165981, -32.428012, 0.0 ], [ -63.2121644, -32.4280041, 0.0 ], [ -63.2121322, -32.4310921, 0.0 ], [ -63.2107133, -32.4318143, 0.0 ], [ -63.2087151, -32.4321379, 0.0 ], [ -63.2087139, -32.4290202, 0.0 ], [ -63.2087353, -32.4236409, 0.0 ], [ -63.2143803, -32.4217445, 0.0 ], [ -63.220052, -32.4200154, 0.0 ], [ -63.2259125, -32.4183868, 0.0 ], [ -63.2315448, -32.416459, 0.0 ], [ -63.2423058, -32.4044215, 0.0 ], [ -63.2458598, -32.4066882, 0.0 ], [ -63.2480856, -32.4080954, 0.0 ], [ -63.2469376, -32.4094087, 0.0 ] ] ] } },
{ "type": "Feature", "properties": { "id": "linea_19.9", "nombre": "Linea 19", "longitud": 10.73, "source_file": "linea_19" }, "geometry": { "type": "MultiLineString", "coordinates": [ [ [ -63.246272, -32.4102092, 0.0 ], [ -63.2429836, -32.4138367, 0.0 ], [ -63.2501144, -32.4183988, 0.0 ], [ -63.2544623, -32.4134887, 0.0 ], [ -63.2554882, -32.4141352, 0.0 ], [ -63.2564605, -32.4147613, 0.0 ], [ -63.2565363, -32.4147647, 0.0 ], [ -63.256663, -32.4147375, 0.0 ], [ -63.2568212, -32.4146175, 0.0 ], [ -63.2569949, -32.4144946, 0.0 ], [ -63.2573714, -32.4143664, 0.0 ], [ -63.2576702, -32.4141646, 0.0 ], [ -63.2584816, -32.4132175, 0.0 ], [ -63.2592903, -32.4122954, 0.0 ], [ -63.261432, -32.4136676, 0.0 ], [ -63.2636113, -32.4149525, 0.0 ], [ -63.2643731, -32.4140904, 0.0 ], [ -63.2648223, -32.4135835, 0.0 ], [ -63.2649718, -32.4134218, 0.0 ], [ -63.2651308, -32.4132996, 0.0 ], [ -63.2653132, -32.4133563, 0.0 ], [ -63.271198, -32.4137174, 0.0 ], [ -63.27127, -32.4129543, 0.0 ], [ -63.2713126, -32.4121822, 0.0 ], [ -63.2713766, -32.4113998, 0.0 ], [ -63.2714701, -32.4105971, 0.0 ], [ -63.2716679, -32.4105762, 0.0 ], [ -63.2717558, -32.4105461, 0.0 ], [ -63.2720455, -32.4073, 0.0 ], [ -63.2732632, -32.4073827, 0.0 ], [ -63.2729628, -32.4106616, 0.0 ], [ -63.2736307, -32.4107046, 0.0 ], [ -63.2733698, -32.4137337, 0.0 ], [ -63.273125, -32.4168987, 0.0 ], [ -63.2726517, -32.4163655, 0.0 ], [ -63.2724284, -32.4161464, 0.0 ], [ -63.2720871, -32.4159183, 0.0 ], [ -63.2715721, -32.4156058, 0.0 ], [ -63.2710906, -32.4154643, 0.0 ], [ -63.2706414, -32.4153884, 0.0 ], [ -63.2702746, -32.4153833, 0.0 ], [ -63.2699131, -32.4154235, 0.0 ], [ -63.268804, -32.4156103, 0.0 ], [ -63.2677312, -32.4162262, 0.0 ], [ -63.2672296, -32.4159636, 0.0 ], [ -63.2650436, -32.4184904, 0.0 ], [ -63.2631191, -32.4172247, 0.0 ], [ -63.2621153, -32.4166213, 0.0 ], [ -63.2611785, -32.4159907, 0.0 ], [ -63.2605019, -32.4157439, 0.0 ], [ -63.2597743, -32.4155175, 0.0 ], [ -63.2597029, -32.4155515, 0.0 ], [ -63.2596565, -32.4155758, 0.0 ], [ -63.2596181, -32.4155662, 0.0 ], [ -63.2595543, -32.4155398, 0.0 ], [ -63.2595521, -32.4154433, 0.0 ], [ -63.2585929, -32.4148269, 0.0 ], [ -63.2580222, -32.414498, 0.0 ], [ -63.2579139, -32.4144445, 0.0 ], [ -63.2577815, -32.4144295, 0.0 ], [ -63.2573597, -32.4144086, 0.0 ], [ -63.2572295, -32.4144373, 0.0 ], [ -63.257059, -32.4144977, 0.0 ], [ -63.2567824, -32.4146967, 0.0 ], [ -63.256714, -32.4149967, 0.0 ], [ -63.2566329, -32.4150646, 0.0 ], [ -63.256533, -32.4150861, 0.0 ], [ -63.2564511, -32.4150538, 0.0 ], [ -63.2564015, -32.4149944, 0.0 ], [ -63.2563734, -32.4148699, 0.0 ], [ -63.2561856, -32.4147306, 0.0 ], [ -63.2552642, -32.414125, 0.0 ], [ -63.2501426, -32.4198897, 0.0 ], [ -63.2437147, -32.4157779, 0.0 ], [ -63.2454206, -32.4136891, 0.0 ], [ -63.2458551, -32.4131988, 0.0 ], [ -63.2486714, -32.4099947, 0.0 ], [ -63.2472444, -32.4090663, 0.0 ], [ -63.2464929, -32.4099554, 0.0 ] ] ] } },
{ "type": "Feature", "properties": { "id": "linea_20.10", "nombre": "Linea 20", "longitud": 9.63, "source_file": "linea_20" }, "geometry": { "type": "MultiLineString", "coordinates": [ [ [ -63.2461811, -32.4103076, 0.0 ], [ -63.2434399, -32.4133831, 0.0 ], [ -63.243, -32.4138632, 0.0 ], [ -63.2444698, -32.4148097, 0.0 ], [ -63.2452799, -32.4138586, 0.0 ], [ -63.2456918, -32.4133829, 0.0 ], [ -63.2478697, -32.4109294, 0.0 ], [ -63.2488407, -32.4115181, 0.0 ], [ -63.2502194, -32.412417, 0.0 ], [ -63.2526065, -32.4096706, 0.0 ], [ -63.2546083, -32.4074544, 0.0 ], [ -63.2552574, -32.4067207, 0.0 ], [ -63.2578072, -32.4038169, 0.0 ], [ -63.2610369, -32.4058073, 0.0 ], [ -63.2611502, -32.4058989, 0.0 ], [ -63.2609115, -32.4061503, 0.0 ], [ -63.2595355, -32.4077526, 0.0 ], [ -63.2607747, -32.4085819, 0.0 ], [ -63.2607908, -32.4086861, 0.0 ], [ -63.2606996, -32.4088174, 0.0 ], [ -63.2596267, -32.4099541, 0.0 ], [ -63.2605065, -32.4105157, 0.0 ], [ -63.2649171, -32.413293, 0.0 ], [ -63.2650378, -32.4133677, 0.0 ], [ -63.2651397, -32.4133066, 0.0 ], [ -63.2652363, -32.4133247, 0.0 ], [ -63.2654267, -32.4133632, 0.0 ], [ -63.2687147, -32.4135566, 0.0 ], [ -63.2711931, -32.4137196, 0.0 ], [ -63.2712659, -32.4128029, 0.0 ], [ -63.2714762, -32.4105892, 0.0 ], [ -63.2717444, -32.4105584, 0.0 ], [ -63.2717498, -32.4104054, 0.0 ], [ -63.2717659, -32.4102537, 0.0 ], [ -63.2720426, -32.4073031, 0.0 ], [ -63.2722438, -32.4073088, 0.0 ], [ -63.273268, -32.4073754, 0.0 ], [ -63.2730119, -32.4103109, 0.0 ], [ -63.2729619, -32.4106465, 0.0 ], [ -63.2736512, -32.4107099, 0.0 ], [ -63.2736271, -32.4108503, 0.0 ], [ -63.2734492, -32.4127131, 0.0 ], [ -63.2734277, -32.4128399, 0.0 ], [ -63.2710003, -32.4126837, 0.0 ], [ -63.2666697, -32.4124137, 0.0 ], [ -63.2640886, -32.412272, 0.0 ], [ -63.2640591, -32.4126863, 0.0 ], [ -63.2638351, -32.4129829, 0.0 ], [ -63.2633442, -32.4135139, 0.0 ], [ -63.2589793, -32.4107315, 0.0 ], [ -63.2567911, -32.4093391, 0.0 ], [ -63.2567781, -32.4092299, 0.0 ], [ -63.2567673, -32.4091551, 0.0 ], [ -63.256357, -32.4089672, 0.0 ], [ -63.2555562, -32.4084299, 0.0 ], [ -63.2534086, -32.4070561, 0.0 ], [ -63.2532813, -32.4070097, 0.0 ], [ -63.2502588, -32.4104054, 0.0 ], [ -63.2499499, -32.4107618, 0.0 ], [ -63.2472523, -32.4090571, 0.0 ], [ -63.2462509, -32.4102298, 0.0 ] ] ] } }
]
}
