{
"type": "FeatureCollection",
"name": "linea_15",
"crs": { "type": "name", "properties": { "name": "urn:ogc:def:crs:OGC:1.3:CRS84" } },
"features": [
{ "type": "Feature", "properties": { "id": "linea_15.4", "nombre": "Linea 15", "longitud": 12.83 }, "geometry": { "type": "MultiLineString", "coordinates": [ [ [ -63.2463853, -32.4100393, 0.0 ], [ -63.2455663, -32.4108874, 0.0 ], [ -63.2411674, -32.4080977, 0.0 ], [ -63.2360002, -32.4138413, 0.0 ], [ -63.2348146, -32.4130658, 0.0 ], [ -63.2336036, -32.4122823, 0.0 ], [ -63.231195, -32.4107493, 0.0 ], [ -63.2249884, -32.4178072, 0.0 ], [ -63.2208685, -32.4151806, 0.0 ], [ -63.2192377, -32.4169377, 0.0 ], [ -63.2134012, -32.4187491, 0.0 ], [ -63.2113896, -32.4193332, 0.0 ], [ -63.2111964, -32.419392, 0.0 ], [ -63.2110677, -32.4195075, 0.0 ], [ -63.2109819, -32.4196106, 0.0 ], [ -63.2109604, -32.4197566, 0.0 ], [ -63.2109851, -32.4217892, 0.0 ], [ -63.2051698, -32.4217829, 0.0 ], [ -63.2051698, -32.4227971, 0.0 ], [ -63.2098822, -32.4227899, 0.0 ], [ -63.2098581, -32.4217484, 0.0 ], [ -63.211057, -32.4217518, 0.0 ], [ -63.2109267, -32.4156122, 0.0 ], [ -63.2109911, -32.4150778, 0.0 ], [ -63.2110018, -32.4135471, 0.0 ], [ -63.2132763, -32.4135471, 0.0 ], [ -63.2133085, -32.4187097, 0.0 ], [ -63.2194454, -32.4167534, 0.0 ], [ -63.2222409, -32.4185912, 0.0 ], [ -63.2280266, -32.4120676, 0.0 ], [ -63.2255113, -32.4104458, 0.0 ], [ -63.2252622, -32.4104727, 0.0 ], [ -63.2250024, -32.4104, 0.0 ], [ -63.2252307, -32.4102729, 0.0 ], [ -63.225459, -32.4102364, 0.0 ], [ -63.2288231, -32.406495, 0.0 ], [ -63.2362313, -32.4112549, 0.0 ], [ -63.2406302, -32.4063275, 0.0 ], [ -63.2464604, -32.4099533, 0.0 ] ] ] } }
]
}
