{
"type": "FeatureCollection",
"name": "linea_12",
"crs": { "type": "name", "properties": { "name": "urn:ogc:def:crs:OGC:1.3:CRS84" } },
"features": [
{ "type": "Feature", "properties": { "id": "linea_12.1", "nombre": "Linea 12", "longitud": 11.57 }, "geometry": { "type": "MultiLineString", "coordinates": [ [ [ -63.2461773, -32.4103967, 0.0 ], [ -63.2455336, -32.4109492, 0.0 ], [ -63.2423471, -32.4089022, 0.0 ], [ -63.2422064, -32.4088016, 0.0 ], [ -63.2432793, -32.4076332, 0.0 ], [ -63.2439112, -32.4069128, 0.0 ], [ -63.2381581, -32.4032584, 0.0 ], [ -63.2416333, -32.3992885, 0.0 ], [ -63.2418418, -32.3994023, 0.0 ], [ -63.2433438, -32.397654, 0.0 ], [ -63.2341256, -32.3917625, 0.0 ], [ -63.2264867, -32.4002916, 0.0 ], [ -63.2218465, -32.3973385, 0.0 ], [ -63.2209024, -32.3967497, 0.0 ], [ -63.2226673, -32.3948608, 0.0 ], [ -63.2235953, -32.3954633, 0.0 ], [ -63.2219506, -32.3973427, 0.0 ], [ -63.2270044, -32.400541, 0.0 ], [ -63.2242714, -32.4035968, 0.0 ], [ -63.2204055, -32.4011699, 0.0 ], [ -63.2169173, -32.4050603, 0.0 ], [ -63.2207207, -32.4074878, 0.0 ], [ -63.2242135, -32.4036273, 0.0 ], [ -63.2245193, -32.4037405, 0.0 ], [ -63.2287128, -32.4064654, 0.0 ], [ -63.2315338, -32.4035391, 0.0 ], [ -63.2388332, -32.4082852, 0.0 ], [ -63.2406632, -32.4063072, 0.0 ], [ -63.2464246, -32.4099938, 0.0 ] ] ] } }
]
}
