{
"type": "FeatureCollection",
"name": "linea_103",
"crs": { "type": "name", "properties": { "name": "urn:ogc:def:crs:OGC:1.3:CRS84" } },
"features": [
{ "type": "Feature", "properties": { "id": "linea_103.12", "nombre": "Linea 103", "longitud": 12.62 }, "geometry": { "type": "MultiLineString", "coordinates": [ [ [ -63.2461292, -32.4103527, 0.0 ], [ -63.2416231, -32.4153343, 0.0 ], [ -63.2379538, -32.4182325, 0.0 ], [ -63.2329757, -32.4150988, 0.0 ], [ -63.2329944, -32.4148927, 0.0 ], [ -63.2448847, -32.401512, 0.0 ], [ -63.2449276, -32.4012946, 0.0 ], [ -63.2452065, -32.4012222, 0.0 ], [ -63.2475454, -32.398577, 0.0 ], [ -63.2480604, -32.3977799, 0.0 ], [ -63.2486827, -32.397345, 0.0 ], [ -63.2489187, -32.3966566, 0.0 ], [ -63.2492191, -32.3964391, 0.0 ], [ -63.2494981, -32.3958775, 0.0 ], [ -63.2502062, -32.3950803, 0.0 ], [ -63.2565362, -32.3989394, 0.0 ], [ -63.259433, -32.395497, 0.0 ], [ -63.2593364, -32.3953249, 0.0 ], [ -63.2606561, -32.3937667, 0.0 ], [ -63.2624907, -32.3918461, 0.0 ], [ -63.2632739, -32.3913478, 0.0 ], [ -63.2658274, -32.3884125, 0.0 ], [ -63.2629951, -32.3864556, 0.0 ], [ -63.261933, -32.3858576, 0.0 ], [ -63.2597175, -32.3845076, 0.0 ], [ -63.2595187, -32.3842992, 0.0 ], [ -63.2610718, -32.3825121, 0.0 ], [ -63.2608814, -32.382374, 0.0 ], [ -63.2593257, -32.3842176, 0.0 ], [ -63.2560534, -32.3821066, 0.0 ], [ -63.2527812, -32.3857896, 0.0 ], [ -63.2493264, -32.3895812, 0.0 ], [ -63.2469339, -32.39229, 0.0 ], [ -63.2464296, -32.3928517, 0.0 ], [ -63.2451743, -32.3942378, 0.0 ], [ -63.2435006, -32.3951618, 0.0 ], [ -63.243844, -32.3963395, 0.0 ], [ -63.2477063, -32.3986948, 0.0 ], [ -63.2452924, -32.4013037, 0.0 ], [ -63.2452387, -32.4014849, 0.0 ], [ -63.2450563, -32.4015483, 0.0 ], [ -63.2424599, -32.4045466, 0.0 ], [ -63.2480282, -32.4080792, 0.0 ], [ -63.2462043, -32.4102621, 0.0 ] ] ] } }
]
}
