{
"type": "FeatureCollection",
"name": "linea_17_b",
"crs": { "type": "name", "properties": { "name": "urn:ogc:def:crs:OGC:1.3:CRS84" } },
"features": [
{ "type": "Feature", "properties": { "id": "linea_17_b.8", "nombre": "Linea 17 B", "longitud": 10.93 }, "geometry": { "type": "MultiLineString", "coordinates": [ [ [ -63.2468628, -32.4095147, 0.0 ], [ -63.2418189, -32.4151213, 0.0 ], [ -63.2379994, -32.4182187, 0.0 ], [ -63.2341987, -32.4159137, 0.0 ], [ -63.2291374, -32.4217146, 0.0 ], [ -63.2277212, -32.4208271, 0.0 ], [ -63.2252455, -32.4228082, 0.0 ], [ -63.224009, -32.4247394, 0.0 ], [ -63.2209393, -32.4264414, 0.0 ], [ -63.217907, -32.4280437, 0.0 ], [ -63.2177092, -32.4280089, 0.0 ], [ -63.217502, -32.4280081, 0.0 ], [ -63.2165981, -32.428012, 0.0 ], [ -63.2121644, -32.4280041, 0.0 ], [ -63.2121322, -32.4310921, 0.0 ], [ -63.2107133, -32.4318143, 0.0 ], [ -63.2087151, -32.4321379, 0.0 ], [ -63.2087139, -32.4290202, 0.0 ], [ -63.2087353, -32.4236409, 0.0 ], [ -63.2143803, -32.4217445, 0.0 ], [ -63.220052, -32.4200154, 0.0 ], [ -63.2259125, -32.4183868, 0.0 ], [ -63.2315448, -32.416459, 0.0 ], [ -63.2423058, -32.4044215, 0.0 ], [ -63.2458598, -32.4066882, 0.0 ], [ -63.2480856, -32.4080954, 0.0 ], [ -63.2469376, -32.4094087, 0.0 ] ] ] } }
]
}
