{
"type": "FeatureCollection",
"name": "linea_16_b",
"crs": { "type": "name", "properties": { "name": "urn:ogc:def:crs:OGC:1.3:CRS84" } },
"features": [
{ "type": "Feature", "properties": { "id": "linea_16_b.7", "nombre": "Linea 16 B", "longitud": 11.99 }, "geometry": { "type": "MultiLineString", "coordinates": [ [ [ -63.2471867, -32.4090685, 0.0 ], [ -63.2442041, -32.4125919, 0.0 ], [ -63.2420261, -32.4149378, 0.0 ], [ -63.2401807, -32.4164956, 0.0 ], [ -63.2346983, -32.4130176, 0.0 ], [ -63.23487, -32.4131354, 0.0 ], [ -63.2332177, -32.4149921, 0.0 ], [ -63.2328637, -32.4150646, 0.0 ], [ -63.2293285, -32.4129271, 0.0 ], [ -63.2256988, -32.410622, 0.0 ], [ -63.2254917, -32.4104634, 0.0 ], [ -63.2252268, -32.4104708, 0.0 ], [ -63.2251081, -32.4104589, 0.0 ], [ -63.2250075, -32.4104176, 0.0 ], [ -63.2249673, -32.4103276, 0.0 ], [ -63.2223494, -32.4086338, 0.0 ], [ -63.2222314, -32.4084345, 0.0 ], [ -63.2167168, -32.40492, 0.0 ], [ -63.2164432, -32.4049789, 0.0 ], [ -63.2159658, -32.4050015, 0.0 ], [ -63.2144745, -32.4049925, 0.0 ], [ -63.2144691, -32.4067996, 0.0 ], [ -63.2149492, -32.4068245, 0.0 ], [ -63.2162233, -32.4079454, 0.0 ], [ -63.2162661, -32.4085364, 0.0 ], [ -63.2187311, -32.4085522, 0.0 ], [ -63.2187103, -32.4087153, 0.0 ], [ -63.2182068, -32.4093312, 0.0 ], [ -63.2143564, -32.4135973, 0.0 ], [ -63.2139166, -32.4125467, 0.0 ], [ -63.211009, -32.4125467, 0.0 ], [ -63.2109876, -32.4135611, 0.0 ], [ -63.2143564, -32.4135973, 0.0 ], [ -63.2161911, -32.4179085, 0.0 ], [ -63.2192595, -32.4169756, 0.0 ], [ -63.2251604, -32.4102732, 0.0 ], [ -63.2254715, -32.4102823, 0.0 ], [ -63.2256378, -32.4104861, 0.0 ], [ -63.2404007, -32.4195659, 0.0 ], [ -63.2445262, -32.4147645, 0.0 ], [ -63.2465807, -32.4123649, 0.0 ], [ -63.2487102, -32.4099924, 0.0 ], [ -63.2471867, -32.4090685, 0.0 ], [ -63.245513, -32.4109344, 0.0 ], [ -63.2459422, -32.4104997, 0.0 ], [ -63.245513, -32.4109344, 0.0 ], [ -63.2459422, -32.4104997, 0.0 ], [ -63.245513, -32.4109344, 0.0 ], [ -63.2459422, -32.4104997, 0.0 ], [ -63.2461031, -32.4103728, 0.0 ], [ -63.2459422, -32.4104997, 0.0 ] ] ] } }
]
}
