{
"type": "FeatureCollection",
"name": "linea_17",
"crs": { "type": "name", "properties": { "name": "urn:ogc:def:crs:OGC:1.3:CRS84" } },
"features": [
{ "type": "Feature", "properties": { "id": "linea_17.6", "nombre": "Linea 17", "longitud": 12.04 }, "geometry": { "type": "MultiLineString", "coordinates": [ [ [ -63.2468764, -32.4094687, 0.0 ], [ -63.2420913, -32.414885, 0.0 ], [ -63.2379715, -32.418218, 0.0 ], [ -63.2342378, -32.4159175, 0.0 ], [ -63.229088, -32.4216958, 0.0 ], [ -63.2276718, -32.420772, 0.0 ], [ -63.2252685, -32.4227825, 0.0 ], [ -63.2240669, -32.4247387, 0.0 ], [ -63.2178227, -32.4280532, 0.0 ], [ -63.2121793, -32.4279988, 0.0 ], [ -63.212131, -32.4310597, 0.0 ], [ -63.2086871, -32.4310869, 0.0 ], [ -63.2087247, -32.42367, 0.0 ], [ -63.2259122, -32.4183991, 0.0 ], [ -63.2309763, -32.4215871, 0.0 ], [ -63.2354824, -32.4164428, 0.0 ], [ -63.2404176, -32.4196128, 0.0 ], [ -63.2439581, -32.4155553, 0.0 ], [ -63.2489042, -32.409994, 0.0 ], [ -63.2472144, -32.4090611, 0.0 ], [ -63.2455246, -32.4109179, 0.0 ], [ -63.2468764, -32.4094687, 0.0 ], [ -63.2455246, -32.4109179, 0.0 ], [ -63.2468764, -32.4094687, 0.0 ], [ -63.2463614, -32.4099759, 0.0 ] ] ] } }
]
}
