{
"type": "FeatureCollection",
"name": "linea_19",
"crs": { "type": "name", "properties": { "name": "urn:ogc:def:crs:OGC:1.3:CRS84" } },
"features": [
{ "type": "Feature", "properties": { "id": "linea_19.9", "nombre": "Linea 19", "longitud": 10.73 }, "geometry": { "type": "MultiLineString", "coordinates": [ [ [ -63.246272, -32.4102092, 0.0 ], [ -63.2429836, -32.4138367, 0.0 ], [ -63.2501144, -32.4183988, 0.0 ], [ -63.2544623, -32.4134887, 0.0 ], [ -63.2554882, -32.4141352, 0.0 ], [ -63.2564605, -32.4147613, 0.0 ], [ -63.2565363, -32.4147647, 0.0 ], [ -63.256663, -32.4147375, 0.0 ], [ -63.2568212, -32.4146175, 0.0 ], [ -63.2569949, -32.4144946, 0.0 ], [ -63.2573714, -32.4143664, 0.0 ], [ -63.2576702, -32.4141646, 0.0 ], [ -63.2584816, -32.4132175, 0.0 ], [ -63.2592903, -32.4122954, 0.0 ], [ -63.261432, -32.4136676, 0.0 ], [ -63.2636113, -32.4149525, 0.0 ], [ -63.2643731, -32.4140904, 0.0 ], [ -63.2648223, -32.4135835, 0.0 ], [ -63.2649718, -32.4134218, 0.0 ], [ -63.2651308, -32.4132996, 0.0 ], [ -63.2653132, -32.4133563, 0.0 ], [ -63.271198, -32.4137174, 0.0 ], [ -63.27127, -32.4129543, 0.0 ], [ -63.2713126, -32.4121822, 0.0 ], [ -63.2713766, -32.4113998, 0.0 ], [ -63.2714701, -32.4105971, 0.0 ], [ -63.2716679, -32.4105762, 0.0 ], [ -63.2717558, -32.4105461, 0.0 ], [ -63.2720455, -32.4073, 0.0 ], [ -63.2732632, -32.4073827, 0.0 ], [ -63.2729628, -32.4106616, 0.0 ], [ -63.2736307, -32.4107046, 0.0 ], [ -63.2733698, -32.4137337, 0.0 ], [ -63.273125, -32.4168987, 0.0 ], [ -63.2726517, -32.4163655, 0.0 ], [ -63.2724284, -32.4161464, 0.0 ], [ -63.2720871, -32.4159183, 0.0 ], [ -63.2715721, -32.4156058, 0.0 ], [ -63.2710906, -32.4154643, 0.0 ], [ -63.2706414, -32.4153884, 0.0 ], [ -63.2702746, -32.4153833, 0.0 ], [ -63.2699131, -32.4154235, 0.0 ], [ -63.268804, -32.4156103, 0.0 ], [ -63.2677312, -32.4162262, 0.0 ], [ -63.2672296, -32.4159636, 0.0 ], [ -63.2650436, -32.4184904, 0.0 ], [ -63.2631191, -32.4172247, 0.0 ], [ -63.2621153, -32.4166213, 0.0 ], [ -63.2611785, -32.4159907, 0.0 ], [ -63.2605019, -32.4157439, 0.0 ], [ -63.2597743, -32.4155175, 0.0 ], [ -63.2597029, -32.4155515, 0.0 ], [ -63.2596565, -32.4155758, 0.0 ], [ -63.2596181, -32.4155662, 0.0 ], [ -63.2595543, -32.4155398, 0.0 ], [ -63.2595521, -32.4154433, 0.0 ], [ -63.2585929, -32.4148269, 0.0 ], [ -63.2580222, -32.414498, 0.0 ], [ -63.2579139, -32.4144445, 0.0 ], [ -63.2577815, -32.4144295, 0.0 ], [ -63.2573597, -32.4144086, 0.0 ], [ -63.2572295, -32.4144373, 0.0 ], [ -63.257059, -32.4144977, 0.0 ], [ -63.2567824, -32.4146967, 0.0 ], [ -63.256714, -32.4149967, 0.0 ], [ -63.2566329, -32.4150646, 0.0 ], [ -63.256533, -32.4150861, 0.0 ], [ -63.2564511, -32.4150538, 0.0 ], [ -63.2564015, -32.4149944, 0.0 ], [ -63.2563734, -32.4148699, 0.0 ], [ -63.2561856, -32.4147306, 0.0 ], [ -63.2552642, -32.414125, 0.0 ], [ -63.2501426, -32.4198897, 0.0 ], [ -63.2437147, -32.4157779, 0.0 ], [ -63.2454206, -32.4136891, 0.0 ], [ -63.2458551, -32.4131988, 0.0 ], [ -63.2486714, -32.4099947, 0.0 ], [ -63.2472444, -32.4090663, 0.0 ], [ -63.2464929, -32.4099554, 0.0 ] ] ] } }
]
}
