{
"type": "FeatureCollection",
"name": "linea_104",
"crs": { "type": "name", "properties": { "name": "urn:ogc:def:crs:OGC:1.3:CRS84" } },
"features": [
{ "type": "Feature", "properties": { "id": "linea_104.11", "nombre": "Linea 104", "longitud": 9 }, "geometry": { "type": "MultiLineString", "coordinates": [ [ [ -63.2332849, -32.4145569, 0.0 ], [ -63.2449096, -32.4014774, 0.0 ], [ -63.2448989, -32.4013279, 0.0 ], [ -63.2449686, -32.4012283, 0.0 ], [ -63.2450813, -32.4012147, 0.0 ], [ -63.2452047, -32.4012509, 0.0 ], [ -63.2475436, -32.3985741, 0.0 ], [ -63.2479459, -32.3978811, 0.0 ], [ -63.2486272, -32.3973466, 0.0 ], [ -63.2486218, -32.3972741, 0.0 ], [ -63.2486647, -32.39717, 0.0 ], [ -63.2487506, -32.3971337, 0.0 ], [ -63.2488203, -32.3968801, 0.0 ], [ -63.2488954, -32.3968076, 0.0 ], [ -63.2489061, -32.3966989, 0.0 ], [ -63.2489866, -32.3966219, 0.0 ], [ -63.2490349, -32.3965811, 0.0 ], [ -63.2493836, -32.3960195, 0.0 ], [ -63.2529777, -32.3917661, 0.0 ], [ -63.2529992, -32.3916665, 0.0 ], [ -63.2530635, -32.3915759, 0.0 ], [ -63.2531869, -32.3915261, 0.0 ], [ -63.260504, -32.3828557, 0.0 ], [ -63.2609734, -32.3824117, 0.0 ], [ -63.2610458, -32.3824616, 0.0 ], [ -63.2611316, -32.382525, 0.0 ], [ -63.2593077, -32.3846315, 0.0 ], [ -63.2536483, -32.3913857, 0.0 ], [ -63.25338, -32.3916846, 0.0 ], [ -63.2533479, -32.391816, 0.0 ], [ -63.253203, -32.3919111, 0.0 ], [ -63.2491797, -32.3967533, 0.0 ], [ -63.2491368, -32.3968393, 0.0 ], [ -63.2490671, -32.3969027, 0.0 ], [ -63.2489812, -32.3973194, 0.0 ], [ -63.2489168, -32.3974146, 0.0 ], [ -63.2487827, -32.3974689, 0.0 ], [ -63.2484555, -32.3980804, 0.0 ], [ -63.2477045, -32.3986964, 0.0 ], [ -63.2452798, -32.4013823, 0.0 ], [ -63.245253, -32.4014729, 0.0 ], [ -63.2451618, -32.4015363, 0.0 ], [ -63.245033, -32.4015589, 0.0 ], [ -63.243649, -32.4032393, 0.0 ], [ -63.241058, -32.4061424, 0.0 ], [ -63.2333118, -32.4149509, 0.0 ], [ -63.2331455, -32.4149826, 0.0 ], [ -63.2330006, -32.4149464, 0.0 ], [ -63.2332206, -32.4146701, 0.0 ] ] ] } }
]
}
