{
"type": "FeatureCollection",
"name": "linea_102",
"crs": { "type": "name", "properties": { "name": "urn:ogc:def:crs:OGC:1.3:CRS84" } },
"features": [
{ "type": "Feature", "properties": { "id": "linea_102.13", "nombre": "Linea 102", "longitud": 12.61 }, "geometry": { "type": "MultiLineString", "coordinates": [ [ [ -63.2467273, -32.4096915, 0.0 ], [ -63.2473241, -32.4089261, 0.0 ], [ -63.248055, -32.4080928, 0.0 ], [ -63.2425043, -32.4045501, 0.0 ], [ -63.2441666, -32.4026744, 0.0 ], [ -63.2450135, -32.4016139, 0.0 ], [ -63.2452655, -32.4014735, 0.0 ], [ -63.2454103, -32.4013083, 0.0 ], [ -63.2476742, -32.3987503, 0.0 ], [ -63.2480014, -32.3989598, 0.0 ], [ -63.2487364, -32.3994308, 0.0 ], [ -63.2494216, -32.3998657, 0.0 ], [ -63.2502437, -32.4003955, 0.0 ], [ -63.2508881, -32.4008173, 0.0 ], [ -63.2519188, -32.4014588, 0.0 ], [ -63.2520864, -32.4016004, 0.0 ], [ -63.2530493, -32.4021666, 0.0 ], [ -63.2531781, -32.4023137, 0.0 ], [ -63.2533819, -32.4023273, 0.0 ], [ -63.2536233, -32.4022163, 0.0 ], [ -63.2537682, -32.4020918, 0.0 ], [ -63.2550088, -32.4007585, 0.0 ], [ -63.2566785, -32.3988409, 0.0 ], [ -63.2595966, -32.3955502, 0.0 ], [ -63.2593163, -32.3953849, 0.0 ], [ -63.2606534, -32.3938618, 0.0 ], [ -63.2610477, -32.3939071, 0.0 ], [ -63.2628072, -32.3919344, 0.0 ], [ -63.2658837, -32.3884374, 0.0 ], [ -63.2629951, -32.3864556, 0.0 ], [ -63.2620001, -32.385801, 0.0 ], [ -63.2598838, -32.3844668, 0.0 ], [ -63.2596045, -32.3842539, 0.0 ], [ -63.2610718, -32.3825121, 0.0 ], [ -63.2608814, -32.382374, 0.0 ], [ -63.2593646, -32.3841496, 0.0 ], [ -63.2585602, -32.3835953, 0.0 ], [ -63.2577237, -32.3830409, 0.0 ], [ -63.256855, -32.382482, 0.0 ], [ -63.2561017, -32.3820341, 0.0 ], [ -63.2560011, -32.3820047, 0.0 ], [ -63.2558925, -32.3820228, 0.0 ], [ -63.2541867, -32.3838971, 0.0 ], [ -63.2525559, -32.3857171, 0.0 ], [ -63.2508875, -32.3876016, 0.0 ], [ -63.2491923, -32.3894589, 0.0 ], [ -63.2467515, -32.3921677, 0.0 ], [ -63.2462043, -32.3927611, 0.0 ], [ -63.2456417, -32.3934224, 0.0 ], [ -63.2453698, -32.393722, 0.0 ], [ -63.2451193, -32.3940283, 0.0 ], [ -63.245069, -32.39412, 0.0 ], [ -63.2450053, -32.3942786, 0.0 ], [ -63.2433397, -32.395198, 0.0 ], [ -63.2436026, -32.3960621, 0.0 ], [ -63.2436572, -32.3962615, 0.0 ], [ -63.2437199, -32.3962843, 0.0 ], [ -63.2437853, -32.3962822, 0.0 ], [ -63.24384, -32.3963163, 0.0 ], [ -63.2442892, -32.3965931, 0.0 ], [ -63.2469151, -32.3983019, 0.0 ], [ -63.247481, -32.3986155, 0.0 ], [ -63.2452388, -32.4011406, 0.0 ], [ -63.2451583, -32.4012256, 0.0 ], [ -63.2450161, -32.4012177, 0.0 ], [ -63.2448847, -32.401306, 0.0 ], [ -63.24489, -32.4014305, 0.0 ], [ -63.2448846, -32.4015211, 0.0 ], [ -63.2328335, -32.4150331, 0.0 ], [ -63.2353723, -32.4166357, 0.0 ], [ -63.237946, -32.4182406, 0.0 ], [ -63.2386213, -32.4177647, 0.0 ], [ -63.239479, -32.4170987, 0.0 ], [ -63.2411145, -32.4157625, 0.0 ], [ -63.2418613, -32.4151341, 0.0 ], [ -63.2425222, -32.4144423, 0.0 ], [ -63.2446289, -32.4120907, 0.0 ], [ -63.2456339, -32.4109103, 0.0 ], [ -63.2460639, -32.4104696, 0.0 ], [ -63.2466764, -32.4097617, 0.0 ] ] ] } }
]
}
