{
"type": "FeatureCollection",
"name": "linea_16",
"crs": { "type": "name", "properties": { "name": "urn:ogc:def:crs:OGC:1.3:CRS84" } },
"features": [
{ "type": "Feature", "properties": { "id": "linea_16.5", "nombre": "Linea 16", "longitud": 9.41 }, "geometry": { "type": "MultiLineString", "coordinates": [ [ [ -63.2463164, -32.4101341, 0.0 ], [ -63.2419981, -32.4149684, 0.0 ], [ -63.2411251, -32.4157553, 0.0 ], [ -63.2402064, -32.4164946, 0.0 ], [ -63.2348473, -32.413157, 0.0 ], [ -63.2340051, -32.4142009, 0.0 ], [ -63.2333319, -32.4149266, 0.0 ], [ -63.2330342, -32.4151451, 0.0 ], [ -63.2254328, -32.4105122, 0.0 ], [ -63.2250036, -32.4105122, 0.0 ], [ -63.2221927, -32.4086282, 0.0 ], [ -63.216206, -32.4086282, 0.0 ], [ -63.2161845, -32.407976, 0.0 ], [ -63.2148112, -32.4068529, 0.0 ], [ -63.2119145, -32.4068529, 0.0 ], [ -63.2119038, -32.4085467, 0.0 ], [ -63.2111635, -32.4086463, 0.0 ], [ -63.2111313, -32.4115087, 0.0 ], [ -63.2109274, -32.4125954, 0.0 ], [ -63.2109489, -32.413474, 0.0 ], [ -63.2142426, -32.4134831, 0.0 ], [ -63.2188346, -32.4085014, 0.0 ], [ -63.2224394, -32.4084924, 0.0 ], [ -63.2250251, -32.4101771, 0.0 ], [ -63.2254113, -32.4102677, 0.0 ], [ -63.232959, -32.4149231, 0.0 ], [ -63.2355447, -32.412052, 0.0 ], [ -63.238007, -32.4135736, 0.0 ], [ -63.2430818, -32.407813, 0.0 ], [ -63.2464238, -32.410005, 0.0 ] ] ] } }
]
}
