{
"type": "FeatureCollection",
"name": "linea_13",
"crs": { "type": "name", "properties": { "name": "urn:ogc:def:crs:OGC:1.3:CRS84" } },
"features": [
{ "type": "Feature", "properties": { "id": "linea_13.2", "nombre": "Linea 13", "longitud": 10.38 }, "geometry": { "type": "MultiLineString", "coordinates": [ [ [ -63.2468143, -32.4096722, 0.0 ], [ -63.2454839, -32.4110852, 0.0 ], [ -63.2422652, -32.4088751, 0.0 ], [ -63.2430484, -32.4078742, 0.0 ], [ -63.2439014, -32.4069254, 0.0 ], [ -63.232974, -32.3999799, 0.0 ], [ -63.2303992, -32.4027338, 0.0 ], [ -63.2210006, -32.3967596, 0.0 ], [ -63.2226435, -32.3948934, 0.0 ], [ -63.22364, -32.3955411, 0.0 ], [ -63.2237311, -32.395566, 0.0 ], [ -63.2282, -32.3983917, 0.0 ], [ -63.2341194, -32.3917656, 0.0 ], [ -63.2362342, -32.3932038, 0.0 ], [ -63.2362449, -32.3931132, 0.0 ], [ -63.2406763, -32.3880739, 0.0 ], [ -63.2409392, -32.3876158, 0.0 ], [ -63.2421597, -32.3873098, 0.0 ], [ -63.2424158, -32.3879994, 0.0 ], [ -63.2420826, -32.3880905, 0.0 ], [ -63.2419134, -32.3876739, 0.0 ], [ -63.2418128, -32.3875199, 0.0 ], [ -63.2411113, -32.3876921, 0.0 ], [ -63.2420068, -32.389613, 0.0 ], [ -63.2422159, -32.3900081, 0.0 ], [ -63.2424089, -32.3900856, 0.0 ], [ -63.2425215, -32.3902401, 0.0 ], [ -63.2424558, -32.3904247, 0.0 ], [ -63.2422251, -32.3905333, 0.0 ], [ -63.2420838, -32.3904944, 0.0 ], [ -63.241921, -32.3903627, 0.0 ], [ -63.2417549, -32.3905485, 0.0 ], [ -63.2415995, -32.390705, 0.0 ], [ -63.239068, -32.3935934, 0.0 ], [ -63.2410958, -32.3948526, 0.0 ], [ -63.2395134, -32.3965647, 0.0 ], [ -63.2415867, -32.397901, 0.0 ], [ -63.2408203, -32.3987559, 0.0 ], [ -63.2405524, -32.3985991, 0.0 ], [ -63.2395174, -32.3997376, 0.0 ], [ -63.2378933, -32.4016004, 0.0 ], [ -63.2480465, -32.408078, 0.0 ], [ -63.2468581, -32.4095026, 0.0 ] ] ] } }
]
}
