{
"type": "FeatureCollection",
"name": "linea_20",
"crs": { "type": "name", "properties": { "name": "urn:ogc:def:crs:OGC:1.3:CRS84" } },
"features": [
{ "type": "Feature", "properties": { "id": "linea_20.10", "nombre": "Linea 20", "longitud": 9.63 }, "geometry": { "type": "MultiLineString", "coordinates": [ [ [ -63.2461811, -32.4103076, 0.0 ], [ -63.2434399, -32.4133831, 0.0 ], [ -63.243, -32.4138632, 0.0 ], [ -63.2444698, -32.4148097, 0.0 ], [ -63.2452799, -32.4138586, 0.0 ], [ -63.2456918, -32.4133829, 0.0 ], [ -63.2478697, -32.4109294, 0.0 ], [ -63.2488407, -32.4115181, 0.0 ], [ -63.2502194, -32.412417, 0.0 ], [ -63.2526065, -32.4096706, 0.0 ], [ -63.2546083, -32.4074544, 0.0 ], [ -63.2552574, -32.4067207, 0.0 ], [ -63.2578072, -32.4038169, 0.0 ], [ -63.2610369, -32.4058073, 0.0 ], [ -63.2611502, -32.4058989, 0.0 ], [ -63.2609115, -32.4061503, 0.0 ], [ -63.2595355, -32.4077526, 0.0 ], [ -63.2607747, -32.4085819, 0.0 ], [ -63.2607908, -32.4086861, 0.0 ], [ -63.2606996, -32.4088174, 0.0 ], [ -63.2596267, -32.4099541, 0.0 ], [ -63.2605065, -32.4105157, 0.0 ], [ -63.2649171, -32.413293, 0.0 ], [ -63.2650378, -32.4133677, 0.0 ], [ -63.2651397, -32.4133066, 0.0 ], [ -63.2652363, -32.4133247, 0.0 ], [ -63.2654267, -32.4133632, 0.0 ], [ -63.2687147, -32.4135566, 0.0 ], [ -63.2711931, -32.4137196, 0.0 ], [ -63.2712659, -32.4128029, 0.0 ], [ -63.2714762, -32.4105892, 0.0 ], [ -63.2717444, -32.4105584, 0.0 ], [ -63.2717498, -32.4104054, 0.0 ], [ -63.2717659, -32.4102537, 0.0 ], [ -63.2720426, -32.4073031, 0.0 ], [ -63.2722438, -32.4073088, 0.0 ], [ -63.273268, -32.4073754, 0.0 ], [ -63.2730119, -32.4103109, 0.0 ], [ -63.2729619, -32.4106465, 0.0 ], [ -63.2736512, -32.4107099, 0.0 ], [ -63.2736271, -32.4108503, 0.0 ], [ -63.2734492, -32.4127131, 0.0 ], [ -63.2734277, -32.4128399, 0.0 ], [ -63.2710003, -32.4126837, 0.0 ], [ -63.2666697, -32.4124137, 0.0 ], [ -63.2640886, -32.412272, 0.0 ], [ -63.2640591, -32.4126863, 0.0 ], [ -63.2638351, -32.4129829, 0.0 ], [ -63.2633442, -32.4135139, 0.0 ], [ -63.2589793, -32.4107315, 0.0 ], [ -63.2567911, -32.4093391, 0.0 ], [ -63.2567781, -32.4092299, 0.0 ], [ -63.2567673, -32.4091551, 0.0 ], [ -63.256357, -32.4089672, 0.0 ], [ -63.2555562, -32.4084299, 0.0 ], [ -63.2534086, -32.4070561, 0.0 ], [ -63.2532813, -32.4070097, 0.0 ], [ -63.2502588, -32.4104054, 0.0 ], [ -63.2499499, -32.4107618, 0.0 ], [ -63.2472523, -32.4090571, 0.0 ], [ -63.2462509, -32.4102298, 0.0 ] ] ] } }
]
}
