{
"type": "FeatureCollection",
"name": "linea_12_paradas",
"crs": { "type": "name", "properties": { "name": "urn:ogc:def:crs:OGC:1.3:CRS84" } },
"features": [
{ "type": "Feature", "properties": { "name": "Centro de Transferencia", "description": "06:15<br>07:00<br>07:45<br>08:30<br>09:15<br>10:15<br>11:00<br>11:45<br>12:30<br>13:15<br>14:00<br>14:45<br>15:30<br>16:15<br>17:00<br>18:00<br>18:45<br>19:30<br>20:15<br>21:00" }, "geometry": { "type": "Point", "coordinates": [ -63.2457966, -32.4107945 ] } },
{ "type": "Feature", "properties": { "name": "Santa Fe-J. Ingenieros", "description": null }, "geometry": { "type": "Point", "coordinates": [ -63.2431693, -32.4093453 ] } },
{ "type": "Feature", "properties": { "name": "Catamarca-L. de la Torre", "description": null }, "geometry": { "type": "Point", "coordinates": [ -63.2432337, -32.4077331 ] } },
{ "type": "Feature", "properties": { "name": "San Juan-Bv. España", "description": null }, "geometry": { "type": "Point", "coordinates": [ -63.2418389, -32.405541 ] } },
{ "type": "Feature", "properties": { "name": "L. Planes-Rioja", "description": null }, "geometry": { "type": "Point", "coordinates": [ -63.2390601, -32.402262 ] } },
{ "type": "Feature", "properties": { "name": "San Juan-Alberdi", "description": null }, "geometry": { "type": "Point", "coordinates": [ -63.239425, -32.403974 ] } },
{ "type": "Feature", "properties": { "name": "L. Planes-Bv. V. Sarsfield", "description": null }, "geometry": { "type": "Point", "coordinates": [ -63.241517, -32.3993451 ] } },
{ "type": "Feature", "properties": { "name": "L.Planes-T. Ibañez\n\n", "description": "06:20<br>07:05<br>07:50<br>08:35<br>09:20<br>10:20<br>11:05<br>11:50<br>12:35<br>13:20<br>14:05<br>14:50<br>15:35<br>16:20<br>17:05<br>18:05<br>18:50<br>19:35<br>20:20<br>21:05" }, "geometry": { "type": "Point", "coordinates": [ -63.243298, -32.3978051 ] } },
{ "type": "Feature", "properties": { "name": "T.Ibañez-Independencia", "description": null }, "geometry": { "type": "Point", "coordinates": [ -63.2414205, -32.3964372 ] } },
{ "type": "Feature", "properties": { "name": "T.Ibañez-I.Arines", "description": null }, "geometry": { "type": "Point", "coordinates": [ -63.2392533, -32.3951508 ] } },
{ "type": "Feature", "properties": { "name": "T.Ibañez-I.Poretti", "description": null }, "geometry": { "type": "Point", "coordinates": [ -63.2362921, -32.3931668 ] } },
{ "type": "Feature", "properties": { "name": "T.Ibañez-I.Reino", "description": null }, "geometry": { "type": "Point", "coordinates": [ -63.2341678, -32.3918351 ] } },
{ "type": "Feature", "properties": { "name": "I.Reino-Jujuy", "description": "06:25<br>07:10<br>07:55<br>08:40<br>09:25<br>10:25<br>11:10<br>11:55<br>12:40<br>13:25<br>14:10<br>14:55<br>15:40<br>16:25<br>17:10<br>18:10<br>18:55<br>19:40<br>20:25<br>21:10" }, "geometry": { "type": "Point", "coordinates": [ -63.2315714, -32.3945167 ] } },
{ "type": "Feature", "properties": { "name": "I.Reino-La Rioja", "description": null }, "geometry": { "type": "Point", "coordinates": [ -63.2298655, -32.3963738 ] } },
{ "type": "Feature", "properties": { "name": "I.Reino-Catamarca", "description": null }, "geometry": { "type": "Point", "coordinates": [ -63.2281918, -32.3983396 ] } },
{ "type": "Feature", "properties": { "name": "I.Reino-Bs As", "description": null }, "geometry": { "type": "Point", "coordinates": [ -63.2265396, -32.4001151 ] } },
{ "type": "Feature", "properties": { "name": "Bs As-N. Sarno", "description": null }, "geometry": { "type": "Point", "coordinates": [ -63.2220764, -32.3974971 ] } },
{ "type": "Feature", "properties": { "name": "Bs As-Romano Ferrari", "description": "06:30<br>07:15<br>08:00<br>08:45<br>09:30<br>10:30<br>11:15<br>12:00<br>12:45<br>13:30<br>14:15<br>15:00<br>15:45<br>16:30<br>17:15<br>18:15<br>19:00<br>19:45<br>20:30<br>21:15" }, "geometry": { "type": "Point", "coordinates": [ -63.2210786, -32.3966909 ] } },
{ "type": "Feature", "properties": { "name": "R. Ferrari-Catamarca", "description": null }, "geometry": { "type": "Point", "coordinates": [ -63.2226343, -32.3949153 ] } },
{ "type": "Feature", "properties": { "name": "Catamarca-N. Sarno", "description": null }, "geometry": { "type": "Point", "coordinates": [ -63.2236737, -32.3954808 ] } },
{ "type": "Feature", "properties": { "name": "Corrientes-Preazzolo", "description": null }, "geometry": { "type": "Point", "coordinates": [ -63.2221837, -32.3991368 ] } },
{ "type": "Feature", "properties": { "name": "Perazzolo-Tucuman", "description": "06:35<br>07:20<br>08:05<br>08:50<br>09:35<br>10:35<br>11:20<br>12:05<br>12:50<br>13:35<br>14:20<br>15:05<br>15:50<br>16:35<br>17:20<br>18:20<br>19:05<br>19:50<br>20:35<br>21:20" }, "geometry": { "type": "Point", "coordinates": [ -63.2195015, -32.4018543 ] } },
{ "type": "Feature", "properties": { "name": "Perazzolo-S.del Estero", "description": null }, "geometry": { "type": "Point", "coordinates": [ -63.21786, -32.4037108 ] } },
{ "type": "Feature", "properties": { "name": "S. del Estero-Monteagudo", "description": null }, "geometry": { "type": "Point", "coordinates": [ -63.2192654, -32.4046709 ] } },
{ "type": "Feature", "properties": { "name": "Brandsen-San Luis", "description": null }, "geometry": { "type": "Point", "coordinates": [ -63.2225377, -32.4052778 ] } },
{ "type": "Feature", "properties": { "name": "Brandsen-Mendoza", "description": null }, "geometry": { "type": "Point", "coordinates": [ -63.2242114, -32.4035205 ] } },
{ "type": "Feature", "properties": { "name": "Brandsen-Corrientes", "description": "06:40<br>07:25<br>08:10<br>08:55<br>09:40<br>10:40<br>11:25<br>12:10<br>12:55<br>13:40<br>14:25<br>15:10<br>15:55<br>16:40<br>17:25<br>18:25<br>19:10<br>19:55<br>20:40<br>21:25" }, "geometry": { "type": "Point", "coordinates": [ -63.2259817, -32.4015186 ] } },
{ "type": "Feature", "properties": { "name": "Bs As-I. Correa", "description": null }, "geometry": { "type": "Point", "coordinates": [ -63.2294793, -32.4020984 ] } },
{ "type": "Feature", "properties": { "name": "Bs As-I.Peña", "description": "06:45<br>07:30<br>08:15<br>09:00<br>09:45<br>10:45<br>11:30<br>12:15<br>13:00<br>13:45<br>14:30<br>15:15<br>16:00<br>16:45<br>17:30<br>18:30<br>19:15<br>20:00<br>20:45<br>21:30" }, "geometry": { "type": "Point", "coordinates": [ -63.2323546, -32.4040006 ] } },
{ "type": "Feature", "properties": { "name": "Bs AS-P. Ortiz", "description": null }, "geometry": { "type": "Point", "coordinates": [ -63.2345111, -32.4053865 ] } },
{ "type": "Feature", "properties": { "name": "Bs As-V. España", "description": "06:50<br>07:35<br>08:20<br>09:05<br>09:50<br>10:50<br>11:35<br>12:20<br>13:05<br>13:50<br>14:35<br>15:20<br>16:05<br>16:50<br>17:35<br>18:35<br>19:20<br>20:05<br>20:50<br>21:35" }, "geometry": { "type": "Point", "coordinates": [ -63.2383628, -32.4078141 ] } },
{ "type": "Feature", "properties": { "name": "Bv. España-Santa Fe", "description": "06:55<br>07:40<br>08:25<br>09:10<br>09:55<br>10:55<br>11:40<br>12:25<br>13:10<br>13:55<br>14:40<br>15:25<br>16:10<br>16:55<br>17:40<br>18:40<br>19:25<br>20:10<br>20:55<br>21:40" }, "geometry": { "type": "Point", "coordinates": [ -63.2396931, -32.4072163 ] } },
{ "type": "Feature", "properties": { "name": "Catamarca-L de la Torre", "description": null }, "geometry": { "type": "Point", "coordinates": [ -63.2432766, -32.4080858 ] } },
{ "type": "Feature", "properties": { "name": "Centro de Transferencia", "description": "07:00<br>07:45<br>08:30<br>09:15<br>10:00<br>11:00<br>11:45<br>12:30<br>13:15<br>14:00<br>14:45<br>15:30<br>16:15<br>17:00<br>17:45<br>18:45<br>19:30<br>20:15<br>21:00<br>21:45" }, "geometry": { "type": "Point", "coordinates": [ -63.2462043, -32.4103365 ] } }
]
}
