{
"type": "FeatureCollection",
"name": "linea_15_paradas",
"crs": { "type": "name", "properties": { "name": "urn:ogc:def:crs:OGC:1.3:CRS84" } },
"features": [
{ "type": "Feature", "properties": { "name": "Santa Fe - J. Ingenieros \n", "description": null }, "geometry": { "type": "Point", "coordinates": [ -63.2430442, -32.4094543 ] } },
{ "type": "Feature", "properties": { "name": "Santa Fe - Chile\n", "description": null }, "geometry": { "type": "Point", "coordinates": [ -63.241219, -32.4082451 ] } },
{ "type": "Feature", "properties": { "name": "Carlos Pellegrini - Mendoza\n", "description": null }, "geometry": { "type": "Point", "coordinates": [ -63.237873, -32.411927 ] } },
{ "type": "Feature", "properties": { "name": "San Luis - Bv. Alvear\n", "description": "6:05<br>7:35<br>9:05<br>10:50<br>12:20<br>13:50<br>15:20<br>16:50<br>18:35<br>20:05" }, "geometry": { "type": "Point", "coordinates": [ -63.2350097, -32.4133229 ] } },
{ "type": "Feature", "properties": { "name": "San Luis - Pablo Colabianchi\n", "description": null }, "geometry": { "type": "Point", "coordinates": [ -63.2331361, -32.4121308 ] } },
{ "type": "Feature", "properties": { "name": "Lamadrid - Sgo. del Estero \n", "description": null }, "geometry": { "type": "Point", "coordinates": [ -63.2308562, -32.4113745 ] } },
{ "type": "Feature", "properties": { "name": "Lamadrid - Manuel Ocampo\n", "description": null }, "geometry": { "type": "Point", "coordinates": [ -63.2288151, -32.4136751 ] } },
{ "type": "Feature", "properties": { "name": "Lamadrid - Piedras\n", "description": "6:10<br>7:40<br>9:10<br>10:55<br>12:25<br>13:55<br>15:25<br>16:55<br>18:40<br>20:10" }, "geometry": { "type": "Point", "coordinates": [ -63.2256528, -32.4172662 ] } },
{ "type": "Feature", "properties": { "name": "Piedras - Ituzaingó \n", "description": null }, "geometry": { "type": "Point", "coordinates": [ -63.2229653, -32.4166549 ] } },
{ "type": "Feature", "properties": { "name": "Piedras - P. Seppey\n", "description": null }, "geometry": { "type": "Point", "coordinates": [ -63.2209429, -32.4154367 ] } },
{ "type": "Feature", "properties": { "name": "P. Seppey - R. Mejía\n", "description": "6:30<br>8:00<br>9:30<br>11:15<br>12:45<br>14:15<br>15:45<br>17:15<br>19:00<br>20:30" }, "geometry": { "type": "Point", "coordinates": [ -63.2196071, -32.416784 ] } },
{ "type": "Feature", "properties": { "name": "P. Seppey-Aconcagua\n", "description": "6:15<br>7:45<br>9:15<br>11:00<br>12:30<br>14:00<br>15:30<br>17:00<br>18:45<br>20:15" }, "geometry": { "type": "Point", "coordinates": [ -63.2162865, -32.4179523 ] } },
{ "type": "Feature", "properties": { "name": "Aconcagua - El Chocón\n", "description": null }, "geometry": { "type": "Point", "coordinates": [ -63.2133106, -32.4185081 ] } },
{ "type": "Feature", "properties": { "name": "Ecuador - salto grande\n", "description": null }, "geometry": { "type": "Point", "coordinates": [ -63.2100249, -32.4218762 ] } },
{ "type": "Feature", "properties": { "name": "Ecuador - f alcorta\n", "description": null }, "geometry": { "type": "Point", "coordinates": [ -63.2077317, -32.421934 ] } },
{ "type": "Feature", "properties": { "name": "Venezuela - Ururguay\n", "description": null }, "geometry": { "type": "Point", "coordinates": [ -63.2053069, -32.4227015 ] } },
{ "type": "Feature", "properties": { "name": "Uruguay - arturo m bas\n", "description": "6:20<br>7:50<br>9:20<br>11:05<br>12:35<br>14:05<br>15:35<br>17:05<br>18:50<br>20:20" }, "geometry": { "type": "Point", "coordinates": [ -63.2085564, -32.4227785 ] } },
{ "type": "Feature", "properties": { "name": "Salto Grande - Ecuador\n", "description": null }, "geometry": { "type": "Point", "coordinates": [ -63.2097513, -32.4220201 ] } },
{ "type": "Feature", "properties": { "name": "Paraguay - Chocón\n", "description": null }, "geometry": { "type": "Point", "coordinates": [ -63.2108832, -32.4186102 ] } },
{ "type": "Feature", "properties": { "name": "Paraguay - Incahuasi\n", "description": null }, "geometry": { "type": "Point", "coordinates": [ -63.2108805, -32.416261 ] } },
{ "type": "Feature", "properties": { "name": "Paraguay - Maipo\n", "description": "6:25<br>7:55<br>9:25<br>11:10<br>12:40<br>14:10<br>15:40<br>17:10<br>18:55<br>20:25" }, "geometry": { "type": "Point", "coordinates": [ -63.2109073, -32.4139888 ] } },
{ "type": "Feature", "properties": { "name": "Lácar 250\n", "description": null }, "geometry": { "type": "Point", "coordinates": [ -63.2120338, -32.413502 ] } },
{ "type": "Feature", "properties": { "name": "Aconcagua - Lago Argentino\n", "description": null }, "geometry": { "type": "Point", "coordinates": [ -63.2133159, -32.4155353 ] } },
{ "type": "Feature", "properties": { "name": "Seppey - Fitz Roy\n", "description": null }, "geometry": { "type": "Point", "coordinates": [ -63.2177885, -32.4172924 ] } },
{ "type": "Feature", "properties": { "name": "Ramos Mejías - Viamonte\n", "description": null }, "geometry": { "type": "Point", "coordinates": [ -63.220802, -32.4176626 ] } },
{ "type": "Feature", "properties": { "name": "Ituzaingo - Ramos Mejías\n", "description": null }, "geometry": { "type": "Point", "coordinates": [ -63.2223416, -32.4184313 ] } },
{ "type": "Feature", "properties": { "name": "Ituzaingó - C. Vigil\n", "description": null }, "geometry": { "type": "Point", "coordinates": [ -63.2239161, -32.416577 ] } },
{ "type": "Feature", "properties": { "name": "Ituzaingó - Bolivar\n", "description": null }, "geometry": { "type": "Point", "coordinates": [ -63.2256863, -32.4146025 ] } },
{ "type": "Feature", "properties": { "name": "Ituzaingó - Ocampo\n", "description": null }, "geometry": { "type": "Point", "coordinates": [ -63.2280789, -32.4118718 ] } },
{ "type": "Feature", "properties": { "name": "Ituzaingó - G. Posadas\n", "description": null }, "geometry": { "type": "Point", "coordinates": [ -63.2298839, -32.4098496 ] } },
{ "type": "Feature", "properties": { "name": "Ituzaingó - Mendoza\n", "description": null }, "geometry": { "type": "Point", "coordinates": [ -63.2312988, -32.4082362 ] } },
{ "type": "Feature", "properties": { "name": "Mendoza - Lamadrid\n", "description": "6:35<br>8:05<br>9:35<br>11:20<br>12:50<br>14:20<br>15:50<br>17:20<br>19:05<br>20:35" }, "geometry": { "type": "Point", "coordinates": [ -63.2326869, -32.408919 ] } },
{ "type": "Feature", "properties": { "name": "Mendoza - Bv. Alvear\n", "description": null }, "geometry": { "type": "Point", "coordinates": [ -63.2360021, -32.4110294 ] } },
{ "type": "Feature", "properties": { "name": "Entre Ríos - Bv. Alvear \n", "description": null }, "geometry": { "type": "Point", "coordinates": [ -63.2374558, -32.4097069 ] } },
{ "type": "Feature", "properties": { "name": "Bv. Alvear - Santa Fe", "description": "6:40<br>8:10<br>9:40<br>11:25<br>12:55<br>14:25<br>15:55<br>17:25<br>19:10<br>20:40" }, "geometry": { "type": "Point", "coordinates": [ -63.2394997, -32.4074425 ] } },
{ "type": "Feature", "properties": { "name": "Catamarca - Lisandro de la Torre", "description": null }, "geometry": { "type": "Point", "coordinates": [ -63.2432655, -32.4078727 ] } },
{ "type": "Feature", "properties": { "name": "Centro De Transferencia", "description": "6:00<br>7:30<br>9:00<br>10:45<br>12:15<br>13:45<br>15:15<br>16:45<br>18:30<br>20:00" }, "geometry": { "type": "Point", "coordinates": [ -63.2462297, -32.4102521 ] } },
{ "type": "Feature", "properties": { "name": "C. pellegrini - corrientes", "description": null }, "geometry": { "type": "Point", "coordinates": [ -63.2395932, -32.4100233 ] } },
{ "type": "Feature", "properties": { "name": "Lamadrid - Bolivar", "description": null }, "geometry": { "type": "Point", "coordinates": [ -63.2273965, -32.4152647 ] } },
{ "type": "Feature", "properties": { "name": "Punto 2", "description": null }, "geometry": { "type": "Point", "coordinates": [ -63.2273251, -32.4080162 ] } }
]
}
