{
"type": "FeatureCollection",
"name": "linea_17_paradas",
"crs": { "type": "name", "properties": { "name": "urn:ogc:def:crs:OGC:1.3:CRS84" } },
"features": [
{ "type": "Feature", "properties": { "name": "Irigoyen-Entre Rios", "description": null }, "geometry": { "type": "Point", "coordinates": [ -63.2430462, -32.4136397 ] } },
{ "type": "Feature", "properties": { "name": "Irigoyen-San Luis", "description": "6:20<br>7:50<br>9:20<br>11:05<br>12:35<br>14:05<br>15:35<br>16:20<br>18:05<br>19:35<br>21:05<br>                                           " }, "geometry": { "type": "Point", "coordinates": [ -63.2407073, -32.4160127 ] } },
{ "type": "Feature", "properties": { "name": "Irigoyen-Sarmiento", "description": null }, "geometry": { "type": "Point", "coordinates": [ -63.2385187, -32.4180505 ] } },
{ "type": "Feature", "properties": { "name": "Sarmiento-9 de Julio", "description": "6:25<br>7:55<br>9:25<br>11:10<br>12:40<br>14:10<br>15:40<br>16:25<br>18:10<br>19:40<br>21:10" }, "geometry": { "type": "Point", "coordinates": [ -63.2366089, -32.4169365 ] } },
{ "type": "Feature", "properties": { "name": "C. Pellegrini-Las Heras", "description": null }, "geometry": { "type": "Point", "coordinates": [ -63.2330362, -32.4176247 ] } },
{ "type": "Feature", "properties": { "name": "Carlos Pellegrini-M. Argentinas", "description": null }, "geometry": { "type": "Point", "coordinates": [ -63.2314698, -32.4192278 ] } },
{ "type": "Feature", "properties": { "name": "C. Pellegrini-Piedras", "description": null }, "geometry": { "type": "Point", "coordinates": [ -63.2300536, -32.4209033 ] } },
{ "type": "Feature", "properties": { "name": "P. Alvear-R. Mejias", "description": "6:30<br>8:00<br>9:30<br>11:15<br>12:45<br>14:15<br>15:45<br>16:30<br>18:15<br>19:45<br>21:15" }, "geometry": { "type": "Point", "coordinates": [ -63.2268457, -32.4219177 ] } },
{ "type": "Feature", "properties": { "name": "Hogar de Ancianos", "description": null }, "geometry": { "type": "Point", "coordinates": [ -63.2254643, -32.4228572 ] } },
{ "type": "Feature", "properties": { "name": "Mercado de Abasto", "description": null }, "geometry": { "type": "Point", "coordinates": [ -63.2216663, -32.4262511 ] } },
{ "type": "Feature", "properties": { "name": "V. de la Plaza 2313", "description": null }, "geometry": { "type": "Point", "coordinates": [ -63.2174391, -32.4282026 ] } },
{ "type": "Feature", "properties": { "name": "V, de la Plaza-C. San Carlos", "description": "6:35<br>8:05<br>9:35<br>11:20<br>12:50<br>14:20<br>15:50<br>16:35<br>18:20<br>19:50<br>21:20" }, "geometry": { "type": "Point", "coordinates": [ -63.2156233, -32.4282479 ] } },
{ "type": "Feature", "properties": { "name": "V. de la Plaza-Constituyentes", "description": null }, "geometry": { "type": "Point", "coordinates": [ -63.2131342, -32.4282117 ] } },
{ "type": "Feature", "properties": { "name": "Constituyentes-El Salvador", "description": null }, "geometry": { "type": "Point", "coordinates": [ -63.2122705, -32.4300319 ] } },
{ "type": "Feature", "properties": { "name": "Alaska-Paraguay", "description": null }, "geometry": { "type": "Point", "coordinates": [ -63.2110206, -32.4312181 ] } },
{ "type": "Feature", "properties": { "name": "Alaska-A.M.Bas", "description": null }, "geometry": { "type": "Point", "coordinates": [ -63.2089124, -32.4312679 ] } },
{ "type": "Feature", "properties": { "name": "A.M.Bas-J.Newbery", "description": null }, "geometry": { "type": "Point", "coordinates": [ -63.2085395, -32.4287572 ] } },
{ "type": "Feature", "properties": { "name": "A.M.Bas-P.Rico", "description": "6:40<br>8:10<br>9:40<br>11:25<br>12:55<br>14:25<br>15:55<br>16:40<br>18:25<br>19:55<br>21:25" }, "geometry": { "type": "Point", "coordinates": [ -63.2086924, -32.4260088 ] } },
{ "type": "Feature", "properties": { "name": "A.M.Bas-D.Peron", "description": null }, "geometry": { "type": "Point", "coordinates": [ -63.2086951, -32.4238911 ] } },
{ "type": "Feature", "properties": { "name": "D.Peron-Paraguay", "description": null }, "geometry": { "type": "Point", "coordinates": [ -63.2121792, -32.422424 ] } },
{ "type": "Feature", "properties": { "name": "D.Peron-Av. Mercedarios", "description": null }, "geometry": { "type": "Point", "coordinates": [ -63.2173694, -32.4207825 ] } },
{ "type": "Feature", "properties": { "name": "D. Peron-Viedma", "description": "6:45<br>8:15<br>9:45<br>11:30<br>13:00<br>14:30<br>16:00<br>16:45<br>18:30<br>20:00<br>21:30" }, "geometry": { "type": "Point", "coordinates": [ -63.2206739, -32.4198134 ] } },
{ "type": "Feature", "properties": { "name": "D. Peron-R.Mejias", "description": null }, "geometry": { "type": "Point", "coordinates": [ -63.222766, -32.4191976 ] } },
{ "type": "Feature", "properties": { "name": "Piedras-P.Alvear", "description": null }, "geometry": { "type": "Point", "coordinates": [ -63.2283879, -32.4197591 ] } },
{ "type": "Feature", "properties": { "name": "Piedras 1685", "description": null }, "geometry": { "type": "Point", "coordinates": [ -63.2264782, -32.4186452 ] } },
{ "type": "Feature", "properties": { "name": "Piedras-25 de Mayo", "description": null }, "geometry": { "type": "Point", "coordinates": [ -63.2309521, -32.4214618 ] } },
{ "type": "Feature", "properties": { "name": "25 de Mayo-M.Argentinas", "description": "6:50<br>8:20<br>9:50<br>11:35<br>13:05<br>14:35<br>16:05<br>16:50<br>18:35<br>20:05<br>21:35" }, "geometry": { "type": "Point", "coordinates": [ -63.2321216, -32.4200851 ] } },
{ "type": "Feature", "properties": { "name": "25 de Mayo-Sarmiento", "description": null }, "geometry": { "type": "Point", "coordinates": [ -63.2351256, -32.4167341 ] } },
{ "type": "Feature", "properties": { "name": "Mitre-S, del Estero", "description": "6:55<br>8:25<br>9:55<br>11:40<br>13:10<br>14:40<br>16:10<br>16:55<br>18:40<br>20:10<br>21:40" }, "geometry": { "type": "Point", "coordinates": [ -63.2409514, -32.4188806 ] } },
{ "type": "Feature", "properties": { "name": "Mitre-Mendoza", "description": null }, "geometry": { "type": "Point", "coordinates": [ -63.2434297, -32.4160186 ] } },
{ "type": "Feature", "properties": { "name": "Mitre-Bs As", "description": null }, "geometry": { "type": "Point", "coordinates": [ -63.2454253, -32.4137906 ] } },
{ "type": "Feature", "properties": { "name": "Sabatini-Catamarca", "description": null }, "geometry": { "type": "Point", "coordinates": [ -63.2476676, -32.4111639 ] } },
{ "type": "Feature", "properties": { "name": "Punto 37", "description": null }, "geometry": { "type": "Point", "coordinates": [ -63.2347959, -32.4170568 ] } },
{ "type": "Feature", "properties": { "name": "Punto 38", "description": null }, "geometry": { "type": "Point", "coordinates": [ -63.2379502, -32.417872 ] } },
{ "type": "Feature", "properties": { "name": "Centro de Transferencia", "description": "6:15<br>7:45<br>9:15<br>11:00<br>12:30<br>14:00<br>15:30<br>16:15<br>18:00<br>19:30<br>21:00" }, "geometry": { "type": "Point", "coordinates": [ -63.2457767, -32.4106145 ] } }
]
}
