{
"type": "FeatureCollection",
"name": "linea_17b_paradas",
"crs": { "type": "name", "properties": { "name": "urn:ogc:def:crs:OGC:1.3:CRS84" } },
"features": [
{ "type": "Feature", "properties": { "name": "Centro de Tranferencias\n", "description": "6:45<br>8:15<br>9:45<br>11:30<br>13:00<br>14:30<br>16:00<br>17:45<br>19:15<br>20:45" }, "geometry": { "type": "Point", "coordinates": [ -63.2468829, -32.4095238 ] } },
{ "type": "Feature", "properties": { "name": "Av. Hipólito Yrigoyen - Entre Ríos\n", "description": null }, "geometry": { "type": "Point", "coordinates": [ -63.2432029, -32.4136359 ] } },
{ "type": "Feature", "properties": { "name": "Av. Hipólito Yrigoyen - San Luis \n", "description": null }, "geometry": { "type": "Point", "coordinates": [ -63.2405207, -32.4162081 ] } },
{ "type": "Feature", "properties": { "name": "Av. Hipólito Yrigoyen - Bv. Sarmiento\n", "description": null }, "geometry": { "type": "Point", "coordinates": [ -63.2382033, -32.4181101 ] } },
{ "type": "Feature", "properties": { "name": "Bv. Sarmiento - 9 de Julio\n", "description": "6:50<br>8:20<br>9:50<br>11:35<br>13:05<br>14:35<br>16:05<br>17:50<br>19:20<br>20:50" }, "geometry": { "type": "Point", "coordinates": [ -63.2363109, -32.4172972 ] } },
{ "type": "Feature", "properties": { "name": "Carlos Pellegrini - Las Heras\n", "description": null }, "geometry": { "type": "Point", "coordinates": [ -63.2330051, -32.4175757 ] } },
{ "type": "Feature", "properties": { "name": "Carlos Pellegrini- Malvinas Argentinas\n", "description": null }, "geometry": { "type": "Point", "coordinates": [ -63.231487, -32.4192082 ] } },
{ "type": "Feature", "properties": { "name": "Carlos Pellegrini - Piedras\n", "description": "6:55<br>8:25<br>9:55<br>11:40<br>13:10<br>14:40<br>16:10<br>17:55<br>19:25<br>20:55" }, "geometry": { "type": "Point", "coordinates": [ -63.2300467, -32.4208044 ] } },
{ "type": "Feature", "properties": { "name": "Prol. Alvear - R. Mejías\n", "description": "7:00<br>8:30<br>10:00<br>11:45<br>13:15<br>14:45<br>16:15<br>18:00<br>19:30<br>21:00" }, "geometry": { "type": "Point", "coordinates": [ -63.226494, -32.421906 ] } },
{ "type": "Feature", "properties": { "name": "Prol. Alvear - Paso de los Andes\n", "description": null }, "geometry": { "type": "Point", "coordinates": [ -63.2250953, -32.4232113 ] } },
{ "type": "Feature", "properties": { "name": "Prol. Alvear (Mercado)\n", "description": null }, "geometry": { "type": "Point", "coordinates": [ -63.2208332, -32.4265688 ] } },
{ "type": "Feature", "properties": { "name": "V. de la Plaza 2313 (plaza)\n", "description": null }, "geometry": { "type": "Point", "coordinates": [ -63.217392, -32.4281558 ] } },
{ "type": "Feature", "properties": { "name": "V. de la Plaza - Combate S. Carlos\n", "description": null }, "geometry": { "type": "Point", "coordinates": [ -63.2156352, -32.4281625 ] } },
{ "type": "Feature", "properties": { "name": "V. de la Plaza - Constituyente\n", "description": "07:05<br>8:35<br>10:05<br>11:50<br>13:20<br>14:50<br>16:20<br>18:05<br>19:35<br>21:05" }, "geometry": { "type": "Point", "coordinates": [ -63.212997, -32.4281173 ] } },
{ "type": "Feature", "properties": { "name": "Constituyente - El Salvador\n", "description": null }, "geometry": { "type": "Point", "coordinates": [ -63.2122031, -32.4297247 ] } },
{ "type": "Feature", "properties": { "name": "Alaska - A. M. Bas\n", "description": null }, "geometry": { "type": "Point", "coordinates": [ -63.2088209, -32.4311419 ] } },
{ "type": "Feature", "properties": { "name": "A. M. Bas - Jorge Newbery\n", "description": "7:10<br>8:40<br>10:10<br>11:55<br>13:25<br>14:55<br>16:25<br>18:10<br>19:40<br>21:10" }, "geometry": { "type": "Point", "coordinates": [ -63.2086169, -32.4287692 ] } },
{ "type": "Feature", "properties": { "name": "A. M. Bas - Puerto Rico\n", "description": null }, "geometry": { "type": "Point", "coordinates": [ -63.2086444, -32.4262799 ] } },
{ "type": "Feature", "properties": { "name": "A. M. Bas - Av. Perón\n", "description": null }, "geometry": { "type": "Point", "coordinates": [ -63.2086365, -32.4242625 ] } },
{ "type": "Feature", "properties": { "name": "Av. Perón - Paraguay\n", "description": null }, "geometry": { "type": "Point", "coordinates": [ -63.2123058, -32.4224693 ] } },
{ "type": "Feature", "properties": { "name": "Av. Perón - Mercedario\n", "description": "7:15<br>8:45<br>10:15<br>12:00<br>13:30<br>15:00<br>16:30<br>18:15<br>19:45<br>21:15" }, "geometry": { "type": "Point", "coordinates": [ -63.2169696, -32.4210307 ] } },
{ "type": "Feature", "properties": { "name": "Av. Perón - Ramos mejías\n", "description": null }, "geometry": { "type": "Point", "coordinates": [ -63.2224816, -32.4191763 ] } },
{ "type": "Feature", "properties": { "name": "Av. Perón 1265\n", "description": null }, "geometry": { "type": "Point", "coordinates": [ -63.227064, -32.4179423 ] } },
{ "type": "Feature", "properties": { "name": "Av. Perón 1045\n", "description": null }, "geometry": { "type": "Point", "coordinates": [ -63.2294499, -32.4170615 ] } },
{ "type": "Feature", "properties": { "name": "Bv. Alvear - Santiago del Estero\n", "description": "07:20<br>8:50<br>10:20<br>12:05<br>13:35<br>15:05<br>16:35<br>18:20<br>19:50<br>21:20" }, "geometry": { "type": "Point", "coordinates": [ -63.2332211, -32.4146147 ] } },
{ "type": "Feature", "properties": { "name": "Bv. Alvear - Mendoza\n", "description": null }, "geometry": { "type": "Point", "coordinates": [ -63.2361124, -32.4113161 ] } },
{ "type": "Feature", "properties": { "name": "Bv. Alvear 150\n", "description": null }, "geometry": { "type": "Point", "coordinates": [ -63.2373596, -32.4097977 ] } },
{ "type": "Feature", "properties": { "name": "Bv. España - Santa Fe \n", "description": null }, "geometry": { "type": "Point", "coordinates": [ -63.2396465, -32.4073014 ] } },
{ "type": "Feature", "properties": { "name": "La Rioja - Bv. España\n", "description": "07:25<br>8:55<br>10:25<br>12:10<br>13:40<br>15:10<br>16:40<br>18:25<br>19:55<br>21:25" }, "geometry": { "type": "Point", "coordinates": [ -63.2427968, -32.4046746 ] } },
{ "type": "Feature", "properties": { "name": "La Rioja - Lisandro de la Torre\n", "description": null }, "geometry": { "type": "Point", "coordinates": [ -63.2447092, -32.4058986 ] } },
{ "type": "Feature", "properties": { "name": "La Rioja - Gral. Paz", "description": null }, "geometry": { "type": "Point", "coordinates": [ -63.2468402, -32.407247 ] } },
{ "type": "Feature", "properties": { "name": "Punto 37", "description": null }, "geometry": { "type": "Point", "coordinates": [ -63.21102, -32.431769 ] } }
]
}
