{
"type": "FeatureCollection",
"name": "linea_16_paradas",
"crs": { "type": "name", "properties": { "name": "urn:ogc:def:crs:OGC:1.3:CRS84" } },
"features": [
{ "type": "Feature", "properties": { "name": "H. Irigoyen - Entre Ríos\n", "description": null }, "geometry": { "type": "Point", "coordinates": [ -63.2431998, -32.4137368 ] } },
{ "type": "Feature", "properties": { "name": "H. Irigoyen - San Luis\n", "description": "07:05<br>8:35<br>10:20<br>11:50<br>13:20<br>14:50<br>16:20<br>18:05<br>19:35<br>21:05" }, "geometry": { "type": "Point", "coordinates": [ -63.2410004, -32.4159059 ] } },
{ "type": "Feature", "properties": { "name": "San Luis - Carlos Pellegrini\n", "description": null }, "geometry": { "type": "Point", "coordinates": [ -63.2361027, -32.4139971 ] } },
{ "type": "Feature", "properties": { "name": "Bv. Alvear - Bv. Sarmiento\n", "description": "7:10<br>8:40<br>10:25<br>11:55<br>13:25<br>14:55<br>16:25<br>18:10<br>19:40<br>21:10" }, "geometry": { "type": "Point", "coordinates": [ -63.2334982, -32.4148418 ] } },
{ "type": "Feature", "properties": { "name": "Prol. Bv. Sarmiento - Martínez Mendoza\n", "description": null }, "geometry": { "type": "Point", "coordinates": [ -63.2285897, -32.4126929 ] } },
{ "type": "Feature", "properties": { "name": "Prol. Bv. Sarmiento - M. Fierro\n", "description": null }, "geometry": { "type": "Point", "coordinates": [ -63.2261301, -32.4110467 ] } },
{ "type": "Feature", "properties": { "name": "Prol. Bv. Sarmiento - E. Requena\n", "description": null }, "geometry": { "type": "Point", "coordinates": [ -63.2240809, -32.4100005 ] } },
{ "type": "Feature", "properties": { "name": "Av. Universidad - Modesto Moreno\n", "description": null }, "geometry": { "type": "Point", "coordinates": [ -63.2216241, -32.4095703 ] } },
{ "type": "Feature", "properties": { "name": "UTN\n", "description": "7:20<br>8:50<br>10:35<br>12:05<br>13:35<br>15:05<br>16:35<br>18:20<br>19:50<br>21:20" }, "geometry": { "type": "Point", "coordinates": [ -63.218215, -32.4086871 ] } },
{ "type": "Feature", "properties": { "name": "Cartagena - Cali\n", "description": null }, "geometry": { "type": "Point", "coordinates": [ -63.2154079, -32.4073003 ] } },
{ "type": "Feature", "properties": { "name": "Cartagena - Monte Hermoso\n", "description": null }, "geometry": { "type": "Point", "coordinates": [ -63.2138308, -32.4068926 ] } },
{ "type": "Feature", "properties": { "name": "Cartagena - Acapulco\n", "description": null }, "geometry": { "type": "Point", "coordinates": [ -63.2121196, -32.4068972 ] } },
{ "type": "Feature", "properties": { "name": "Acapulco - Av. Universidad\n", "description": null }, "geometry": { "type": "Point", "coordinates": [ -63.2119854, -32.4083691 ] } },
{ "type": "Feature", "properties": { "name": "Mrcedario - Piedras\n", "description": null }, "geometry": { "type": "Point", "coordinates": [ -63.2114168, -32.4107151 ] } },
{ "type": "Feature", "properties": { "name": "Lacar 250\n", "description": "7:25<br>8:55<br>10:40<br>12:10<br>13:40<br>15:10<br>16:40<br>18:25<br>19:55<br>21:25" }, "geometry": { "type": "Point", "coordinates": [ -63.212184, -32.4134731 ] } },
{ "type": "Feature", "properties": { "name": "M. Moreno - Bolivar\n", "description": null }, "geometry": { "type": "Point", "coordinates": [ -63.2163615, -32.4110785 ] } },
{ "type": "Feature", "properties": { "name": "M. Moreno - Bv. Sarmiento\n", "description": "7:15<br>8:45<br>10:30<br>12:00<br>13:30<br>15:00<br>16:30<br>18:15<br>19:45<br>21:15" }, "geometry": { "type": "Point", "coordinates": [ -63.221876, -32.4087145 ] } },
{ "type": "Feature", "properties": { "name": "Prol. Bv. Sarmiento - Requena\n", "description": null }, "geometry": { "type": "Point", "coordinates": [ -63.2242348, -32.4095558 ] } },
{ "type": "Feature", "properties": { "name": "Prol. Bv. Sarmiento - M. Fierro\n", "description": null }, "geometry": { "type": "Point", "coordinates": [ -63.226241, -32.4106699 ] } },
{ "type": "Feature", "properties": { "name": "Prol. Bv. Sarmiento - Ituzaingó\n", "description": null }, "geometry": { "type": "Point", "coordinates": [ -63.2289554, -32.4123183 ] } },
{ "type": "Feature", "properties": { "name": "Bv. Alvear - Santiago del Estero\n", "description": "06:50<br>07:35<br>08:20<br>09:05<br>09:50<br>10:50<br>11:35<br>12:20<br>13:05<br>13:50<br>14:35<br>15:20<br>16:05<br>16:50<br>17:35<br>18:35<br>19:20<br>20:05<br>20:50<br>21:35" }, "geometry": { "type": "Point", "coordinates": [ -63.233129, -32.4145464 ] } },
{ "type": "Feature", "properties": { "name": "Tucumán - Carlos Pellegrini\n", "description": "7:35<br>9:05<br>10:50<br>12:20<br>13:50<br>15:20<br>16:50<br>18:35<br>20:05<br>21:35" }, "geometry": { "type": "Point", "coordinates": [ -63.2367982, -32.4128074 ] } },
{ "type": "Feature", "properties": { "name": "25 de Mayo - Entre Ríos\n", "description": null }, "geometry": { "type": "Point", "coordinates": [ -63.239251, -32.4121135 ] } },
{ "type": "Feature", "properties": { "name": "25 de Mayo - Bs. As.\n", "description": "7:40<br>9:10<br>10:55<br>12:25<br>13:55<br>15:25<br>16:55<br>18:40<br>20:10<br>21:40" }, "geometry": { "type": "Point", "coordinates": [ -63.2410105, -32.4102024 ] } },
{ "type": "Feature", "properties": { "name": "Catamarca - L. de la Torre\n", "description": null }, "geometry": { "type": "Point", "coordinates": [ -63.2432099, -32.4080013 ] } },
{ "type": "Feature", "properties": { "name": "Centro de Transferencia", "description": "7:00<br>8:30<br>10:15<br>11:45<br>13:15<br>14:45<br>16:15<br>18:00<br>19:30<br>21:00" }, "geometry": { "type": "Point", "coordinates": [ -63.2458886, -32.4104127 ] } },
{ "type": "Feature", "properties": { "name": "Punto 35", "description": null }, "geometry": { "type": "Point", "coordinates": [ -63.2110709, -32.4126917 ] } },
{ "type": "Feature", "properties": { "name": "Punto 36", "description": null }, "geometry": { "type": "Point", "coordinates": [ -63.2146652, -32.4128208 ] } },
{ "type": "Feature", "properties": { "name": "A. Camara-Av. Universidad", "description": "7:30<br>9:00<br>10:45<br>12:15<br>13:45<br>15:15<br>16:45<br>18:30<br>20:00<br>21:30" }, "geometry": { "type": "Point", "coordinates": [ -63.218431, -32.4088083 ] } }
]
}
