{
"type": "FeatureCollection",
"name": "linea_3b_paradas",
"crs": { "type": "name", "properties": { "name": "urn:ogc:def:crs:OGC:1.3:CRS84" } },
"features": [
{ "type": "Feature", "properties": { "name": "Leandro N. Alem 240, Villa María, Córdoba, Argentina", "description": null }, "geometry": { "type": "Point", "coordinates": [ -63.2467773, -32.4095847 ] } },
{ "type": "Feature", "properties": { "name": "Leandro N. Alem 240, Villa María, Córdoba, Argentina", "description": null }, "geometry": { "type": "Point", "coordinates": [ -63.2467687, -32.4095952 ] } }
]
}
