{
"type": "FeatureCollection",
"name": "linea_16b_paradas",
"crs": { "type": "name", "properties": { "name": "urn:ogc:def:crs:OGC:1.3:CRS84" } },
"features": [
{ "type": "Feature", "properties": { "name": "H. Irigoyen - Entre Rios\n", "description": null }, "geometry": { "type": "Point", "coordinates": [ -63.2431955, -32.4136788 ] } },
{ "type": "Feature", "properties": { "name": "H. Irigoyen - San Luis\n", "description": null }, "geometry": { "type": "Point", "coordinates": [ -63.2410006, -32.4159847 ] } },
{ "type": "Feature", "properties": { "name": "San Luis - C. Pellegrini\n", "description": "06:50<br>8:20<br>9:50<br>11:35<br>13:05<br>14:35<br>16:05<br>17:50<br>19:20<br>20:50" }, "geometry": { "type": "Point", "coordinates": [ -63.2360814, -32.4140872 ] } },
{ "type": "Feature", "properties": { "name": "Bv. Alvear - Bv. Sarmiento\n", "description": null }, "geometry": { "type": "Point", "coordinates": [ -63.2335279, -32.4149431 ] } },
{ "type": "Feature", "properties": { "name": "Prol. Bv. Sarmiento - Martínez Mendoza\n", "description": null }, "geometry": { "type": "Point", "coordinates": [ -63.2284827, -32.4127128 ] } },
{ "type": "Feature", "properties": { "name": "Prol. Bv. Sarmiento - Martín Fierro \n", "description": null }, "geometry": { "type": "Point", "coordinates": [ -63.2260981, -32.4110575 ] } },
{ "type": "Feature", "properties": { "name": "Prol. Bv. Sarmiento - E. Requena\n", "description": "6:55<br>8:25<br>9:55<br>11:40<br>13:10<br>14:40<br>16:10<br>17:55<br>19:25<br>20:55" }, "geometry": { "type": "Point", "coordinates": [ -63.2240812, -32.4099072 ] } },
{ "type": "Feature", "properties": { "name": "Prol. Bv. Sarmiento - Av. Universidad \n", "description": null }, "geometry": { "type": "Point", "coordinates": [ -63.221989, -32.4084307 ] } },
{ "type": "Feature", "properties": { "name": "Prol. Bv. Sarmiento - Asunción\n", "description": null }, "geometry": { "type": "Point", "coordinates": [ -63.2170538, -32.4052446 ] } },
{ "type": "Feature", "properties": { "name": "Paysandú - Santa Marta\n", "description": null }, "geometry": { "type": "Point", "coordinates": [ -63.2145312, -32.4055073 ] } },
{ "type": "Feature", "properties": { "name": "Paysandú - Cartagena\n", "description": null }, "geometry": { "type": "Point", "coordinates": [ -63.2146129, -32.4066078 ] } },
{ "type": "Feature", "properties": { "name": "Cartagena - Valparaiso\n", "description": "7:00<br>8:30<br>10:00<br>11:45<br>13:15<br>14:45<br>16:15<br>18:00<br>19:30<br>21:00" }, "geometry": { "type": "Point", "coordinates": [ -63.2160409, -32.407651 ] } },
{ "type": "Feature", "properties": { "name": "Av. Univerdad - Aguirre Cámara\n", "description": null }, "geometry": { "type": "Point", "coordinates": [ -63.218537, -32.4084874 ] } },
{ "type": "Feature", "properties": { "name": "Aguirre Cámara - C. Vigil\n", "description": null }, "geometry": { "type": "Point", "coordinates": [ -63.2163979, -32.4114413 ] } },
{ "type": "Feature", "properties": { "name": "Aguirre Cámara - Quintana\n", "description": null }, "geometry": { "type": "Point", "coordinates": [ -63.2149912, -32.413066 ] } },
{ "type": "Feature", "properties": { "name": "Aluminé -Paraguay\n", "description": null }, "geometry": { "type": "Point", "coordinates": [ -63.2111744, -32.4128826 ] } },
{ "type": "Feature", "properties": { "name": "Paraguay - Lacar \n", "description": "7:05<br>8:35<br>10:05<br>11:50<br>13:20<br>14:50<br>16:20<br>18:05<br>19:35<br>21:05" }, "geometry": { "type": "Point", "coordinates": [ -63.2123492, -32.4135212 ] } },
{ "type": "Feature", "properties": { "name": "Mercedarios - Maipo\n", "description": null }, "geometry": { "type": "Point", "coordinates": [ -63.2145889, -32.4140238 ] } },
{ "type": "Feature", "properties": { "name": "Mercedarios - M. Moreno\n", "description": null }, "geometry": { "type": "Point", "coordinates": [ -63.2154727, -32.4160616 ] } },
{ "type": "Feature", "properties": { "name": "Seppey - Fitz Roy\n", "description": null }, "geometry": { "type": "Point", "coordinates": [ -63.2178638, -32.417282 ] } },
{ "type": "Feature", "properties": { "name": "Seppey - Remedios de Escalada \n", "description": "7:10<br>8:40<br>10:10<br>11:55<br>13:25<br>14:55<br>16:25<br>18:10<br>19:40<br>21:10" }, "geometry": { "type": "Point", "coordinates": [ -63.2216646, -32.4141211 ] } },
{ "type": "Feature", "properties": { "name": "Prol. Bv. Sarmiento - M. Fierro\n", "description": null }, "geometry": { "type": "Point", "coordinates": [ -63.2260489, -32.410682 ] } },
{ "type": "Feature", "properties": { "name": "Prol. Bv. Sarmiento - santa lucia\n", "description": null }, "geometry": { "type": "Point", "coordinates": [ -63.2288572, -32.4124075 ] } },
{ "type": "Feature", "properties": { "name": "terminal\n", "description": "07:15<br>8:45<br>10:15<br>12:00<br>13:30<br>15:00<br>16:30<br>18:15<br>19:45<br>21:15" }, "geometry": { "type": "Point", "coordinates": [ -63.2327512, -32.414477 ] } },
{ "type": "Feature", "properties": { "name": "Bv. Sarmiento - San Martín\n", "description": "7:20<br>8:50<br>10:20<br>12:05<br>13:35<br>15:05<br>16:35<br>18:20<br>19:50<br>21:20" }, "geometry": { "type": "Point", "coordinates": [ -63.2379946, -32.4179323 ] } },
{ "type": "Feature", "properties": { "name": "B. Mitre - Sgo. Del Estero\n", "description": null }, "geometry": { "type": "Point", "coordinates": [ -63.2410898, -32.4186794 ] } },
{ "type": "Feature", "properties": { "name": "B. Mitre - Mendoza \n", "description": "7:25<br>8:55<br>10:25<br>12:10<br>13:40<br>15:10<br>16:40<br>18:25<br>19:55<br>21:25" }, "geometry": { "type": "Point", "coordinates": [ -63.2435682, -32.4158537 ] } },
{ "type": "Feature", "properties": { "name": "B. Mitre - Corrientes\n", "description": null }, "geometry": { "type": "Point", "coordinates": [ -63.2452785, -32.4138011 ] } },
{ "type": "Feature", "properties": { "name": "Av. Sabattini - Santa Fe \n", "description": null }, "geometry": { "type": "Point", "coordinates": [ -63.2473331, -32.4114383 ] } },
{ "type": "Feature", "properties": { "name": "Centro de Transferencia", "description": "6:45<br>8:15<br>9:45<br>11:30<br>13:00<br>14:30<br>16:00<br>17:45<br>19:15<br>20:45" }, "geometry": { "type": "Point", "coordinates": [ -63.2459422, -32.4104997 ] } },
{ "type": "Feature", "properties": { "name": "Centro de Transferencia", "description": "07:30<br>9:00<br>10:30<br>12:15<br>13:45<br>15:15<br>16:45<br>18:30<br>20:00<br>21:30" }, "geometry": { "type": "Point", "coordinates": [ -63.2458709, -32.4105232 ] } }
]
}
