{
"type": "FeatureCollection",
"name": "linea_19_paradas",
"crs": { "type": "name", "properties": { "name": "urn:ogc:def:crs:OGC:1.3:CRS84" } },
"features": [
{ "type": "Feature", "properties": { "name": "Entre Ríos - Antonio Sobral\n", "description": null }, "geometry": { "type": "Point", "coordinates": [ -63.2433518, -32.4133279 ] } },
{ "type": "Feature", "properties": { "name": "Entre Ríos - Belgrano \n", "description": null }, "geometry": { "type": "Point", "coordinates": [ -63.2466348, -32.4162805 ] } },
{ "type": "Feature", "properties": { "name": "Entre Ríos - Bv. Cárcano\n", "description": "6:50<br>8:20<br>9:50<br>11:35<br>13:05<br>14:35<br>16:05<br>17:50<br>19:20<br>20:50" }, "geometry": { "type": "Point", "coordinates": [ -63.2487806, -32.4177115 ] } },
{ "type": "Feature", "properties": { "name": "Reconquista - Av. Dante Alighieri\n", "description": null }, "geometry": { "type": "Point", "coordinates": [ -63.2507775, -32.4175225 ] } },
{ "type": "Feature", "properties": { "name": "Colombia - Santa Fé\n", "description": null }, "geometry": { "type": "Point", "coordinates": [ -63.252643, -32.4155197 ] } },
{ "type": "Feature", "properties": { "name": "Colombia - Av. Nac. Unidas\n", "description": null }, "geometry": { "type": "Point", "coordinates": [ -63.2542523, -32.4137445 ] } },
{ "type": "Feature", "properties": { "name": "B. Ceballos - Salta\n", "description": null }, "geometry": { "type": "Point", "coordinates": [ -63.2590373, -32.4125671 ] } },
{ "type": "Feature", "properties": { "name": "Liniers - Sgo. Balerdi \n", "description": "6:55<br>8:25<br>9:55<br>11:40<br>13:10<br>14:40<br>16:10<br>17:55<br>19:25<br>20:55" }, "geometry": { "type": "Point", "coordinates": [ -63.2613991, -32.4137397 ] } },
{ "type": "Feature", "properties": { "name": "S. Cabral - 12 de Octubre \n", "description": null }, "geometry": { "type": "Point", "coordinates": [ -63.2635824, -32.4148787 ] } },
{ "type": "Feature", "properties": { "name": "Iguazú - Progreso\n", "description": null }, "geometry": { "type": "Point", "coordinates": [ -63.2649396, -32.4134612 ] } },
{ "type": "Feature", "properties": { "name": "Iguazú - M. Disandro\n", "description": null }, "geometry": { "type": "Point", "coordinates": [ -63.2687672, -32.4135314 ] } },
{ "type": "Feature", "properties": { "name": "Calafate - Lanín\n", "description": "7:00<br>8:30<br>10:00<br>11:45<br>13:15<br>14:45<br>16:15<br>18:00<br>19:30<br>21:00" }, "geometry": { "type": "Point", "coordinates": [ -63.2712347, -32.4128385 ] } },
{ "type": "Feature", "properties": { "name": "Los Abedules - Los Nogales\n", "description": null }, "geometry": { "type": "Point", "coordinates": [ -63.2717229, -32.4103477 ] } },
{ "type": "Feature", "properties": { "name": "Santoni - Los Abedules\n", "description": null }, "geometry": { "type": "Point", "coordinates": [ -63.2722438, -32.4073699 ] } },
{ "type": "Feature", "properties": { "name": "Las Violetas - Los Sauces\n", "description": null }, "geometry": { "type": "Point", "coordinates": [ -63.2730887, -32.4102367 ] } },
{ "type": "Feature", "properties": { "name": "Las Violetas - Bv. Colón\n", "description": null }, "geometry": { "type": "Point", "coordinates": [ -63.2736681, -32.4108119 ] } },
{ "type": "Feature", "properties": { "name": "El Palmar - Lanín\n", "description": null }, "geometry": { "type": "Point", "coordinates": [ -63.2735224, -32.4127748 ] } },
{ "type": "Feature", "properties": { "name": "El Palmar - Laguna Blanca\n", "description": "7:05<br>8:35<br>10:05<br>11:50<br>13:20<br>14:50<br>16:20<br>18:05<br>19:35<br>21:05" }, "geometry": { "type": "Point", "coordinates": [ -63.2734259, -32.4148104 ] } },
{ "type": "Feature", "properties": { "name": "Av. Islas Baleares - Calafate\n", "description": null }, "geometry": { "type": "Point", "coordinates": [ -63.2709796, -32.4155713 ] } },
{ "type": "Feature", "properties": { "name": "12 de Octubre - Ascasubi\n", "description": null }, "geometry": { "type": "Point", "coordinates": [ -63.2673003, -32.4160671 ] } },
{ "type": "Feature", "properties": { "name": "Ascasubi - Sáenz Peña\n", "description": null }, "geometry": { "type": "Point", "coordinates": [ -63.2659336, -32.4175853 ] } },
{ "type": "Feature", "properties": { "name": "E. González - Derqui\n", "description": null }, "geometry": { "type": "Point", "coordinates": [ -63.2641661, -32.41808 ] } },
{ "type": "Feature", "properties": { "name": "E. González - S. Cabral\n", "description": "7:10<br>8:40<br>10:10<br>11:55<br>13:25<br>14:55<br>16:25<br>18:10<br>19:40<br>21:10" }, "geometry": { "type": "Point", "coordinates": [ -63.2622671, -32.416966 ] } },
{ "type": "Feature", "properties": { "name": "E. González - Balerdi\n", "description": null }, "geometry": { "type": "Point", "coordinates": [ -63.2604861, -32.4159245 ] } },
{ "type": "Feature", "properties": { "name": "E. González - Esquiú\n", "description": null }, "geometry": { "type": "Point", "coordinates": [ -63.25804, -32.4145659 ] } },
{ "type": "Feature", "properties": { "name": "Av. Nac. Unidas - Muller\n", "description": null }, "geometry": { "type": "Point", "coordinates": [ -63.2564736, -32.4146745 ] } },
{ "type": "Feature", "properties": { "name": "Muller - Santa Fé \n", "description": null }, "geometry": { "type": "Point", "coordinates": [ -63.2535312, -32.4162574 ] } },
{ "type": "Feature", "properties": { "name": "Bolivia - Mendoza\n", "description": null }, "geometry": { "type": "Point", "coordinates": [ -63.2504117, -32.4198823 ] } },
{ "type": "Feature", "properties": { "name": "Mendoza - Bv. Cárcano\n", "description": null }, "geometry": { "type": "Point", "coordinates": [ -63.2484054, -32.4188408 ] } },
{ "type": "Feature", "properties": { "name": "Mendoza - Belgrano\n", "description": null }, "geometry": { "type": "Point", "coordinates": [ -63.2460987, -32.417437 ] } },
{ "type": "Feature", "properties": { "name": "Mendoza - Mitre\n", "description": "7:20<br>8:50<br>10:20<br>12:05<br>13:35<br>15:05<br>16:35<br>18:20<br>19:50<br>21:20" }, "geometry": { "type": "Point", "coordinates": [ -63.2442458, -32.4162262 ] } },
{ "type": "Feature", "properties": { "name": "37 Mitre - Corrientes\n", "description": null }, "geometry": { "type": "Point", "coordinates": [ -63.2456083, -32.413817 ] } },
{ "type": "Feature", "properties": { "name": "Av. Sabattini - Santa Fe \n", "description": "7:25<br>8:55<br>10:25<br>12:10<br>13:40<br>15:10<br>16:40<br>18:25<br>19:55<br>21:25" }, "geometry": { "type": "Point", "coordinates": [ -63.2473357, -32.4114892 ] } },
{ "type": "Feature", "properties": { "name": "Centro de Transferencia", "description": "6:45<br>8:15<br>9:45<br>11:30<br>13:00<br>14:30<br>16:00<br>17:45<br>19:15<br>20:45" }, "geometry": { "type": "Point", "coordinates": [ -63.2462539, -32.4100763 ] } },
{ "type": "Feature", "properties": { "name": "Punto 39", "description": null }, "geometry": { "type": "Point", "coordinates": [ -63.2689396, -32.4156709 ] } },
{ "type": "Feature", "properties": { "name": "Punto 40", "description": null }, "geometry": { "type": "Point", "coordinates": [ -63.255419, -32.4142942 ] } },
{ "type": "Feature", "properties": { "name": "Bolivia - Av. Dante Alighieri \n", "description": "7:15<br>8:45<br>10:15<br>12:00<br>13:30<br>15:00<br>16:30<br>18:15<br>19:45<br>21:15" }, "geometry": { "type": "Point", "coordinates": [ -63.2522035, -32.4177902 ] } }
]
}
