{
"type": "FeatureCollection",
"name": "linea_13_paradas",
"crs": { "type": "name", "properties": { "name": "urn:ogc:def:crs:OGC:1.3:CRS84" } },
"features": [
{ "type": "Feature", "properties": { "name": "Centro de Transferencias\n", "description": "6:00<br>7:30<br>9:00<br>10:45<br>12:15<br>13:45<br>15:15<br>16:45<br>18:30<br>20:00" }, "geometry": { "type": "Point", "coordinates": [ -63.2462176, -32.4100772 ] } },
{ "type": "Feature", "properties": { "name": "Santa Fe - José Ingenieros \n", "description": null }, "geometry": { "type": "Point", "coordinates": [ -63.2430406, -32.409523 ] } },
{ "type": "Feature", "properties": { "name": "L. de la Torre - Catamarca\n", "description": null }, "geometry": { "type": "Point", "coordinates": [ -63.2430715, -32.4077386 ] } },
{ "type": "Feature", "properties": { "name": "San Juan - Bv. España\n", "description": null }, "geometry": { "type": "Point", "coordinates": [ -63.2418846, -32.4057345 ] } },
{ "type": "Feature", "properties": { "name": "San Juan - V. Lopez y Planes \n", "description": "6:05<br>7:35<br>9:05<br>10:50<br>12:20<br>13:50<br>15:20<br>16:50<br>18:35<br>20:05" }, "geometry": { "type": "Point", "coordinates": [ -63.2382181, -32.403436 ] } },
{ "type": "Feature", "properties": { "name": "San Juan - Int. Peña\n", "description": null }, "geometry": { "type": "Point", "coordinates": [ -63.235949, -32.401973 ] } },
{ "type": "Feature", "properties": { "name": "San Juan - Int. Maciel", "description": null }, "geometry": { "type": "Point", "coordinates": [ -63.2330361, -32.400116 ] } },
{ "type": "Feature", "properties": { "name": "Int. Reino - Catamarca", "description": "6:20<br>7:50<br>9:20<br>11:05<br>12:35<br>14:05<br>15:35<br>17:05<br>18:50<br>20:20" }, "geometry": { "type": "Point", "coordinates": [ -63.228082, -32.3982468 ] } },
{ "type": "Feature", "properties": { "name": "Bs. As. - Monteagudo\n", "description": null }, "geometry": { "type": "Point", "coordinates": [ -63.2245361, -32.3991527 ] } },
{ "type": "Feature", "properties": { "name": "Bs. As. - Nicolás Sarno\n", "description": "6:10<br>7:40<br>9:10<br>10:55<br>12:25<br>13:55<br>15:25<br>16:55<br>18:40<br>20:10" }, "geometry": { "type": "Point", "coordinates": [ -63.2214569, -32.3971303 ] } },
{ "type": "Feature", "properties": { "name": "Romano Ferrari - Catamarca\n", "description": null }, "geometry": { "type": "Point", "coordinates": [ -63.2224933, -32.3949648 ] } },
{ "type": "Feature", "properties": { "name": "Catamarca - Nicolas Sarno\n", "description": null }, "geometry": { "type": "Point", "coordinates": [ -63.2235273, -32.3953486 ] } },
{ "type": "Feature", "properties": { "name": "Catamarca - Monteagudo", "description": null }, "geometry": { "type": "Point", "coordinates": [ -63.226065, -32.3968547 ] } },
{ "type": "Feature", "properties": { "name": "Int. Reyno - La Rioja\n", "description": null }, "geometry": { "type": "Point", "coordinates": [ -63.2296252, -32.3966569 ] } },
{ "type": "Feature", "properties": { "name": "Int.Reyno - V. Sarsfield\n", "description": null }, "geometry": { "type": "Point", "coordinates": [ -63.2323369, -32.3935926 ] } },
{ "type": "Feature", "properties": { "name": "Int. Reyno - Tte. Ibañez\n", "description": "06:25<br>7:55<br>9:25<br>11:10<br>12:40<br>14:10<br>15:40<br>17:10<br>18:55<br>20:25" }, "geometry": { "type": "Point", "coordinates": [ -63.2335534, -32.3922458 ] } },
{ "type": "Feature", "properties": { "name": "Tte. Ibañez - Int. Poretti", "description": null }, "geometry": { "type": "Point", "coordinates": [ -63.2361282, -32.3929841 ] } },
{ "type": "Feature", "properties": { "name": "Rawson - Int. Arines", "description": null }, "geometry": { "type": "Point", "coordinates": [ -63.2409656, -32.3947167 ] } },
{ "type": "Feature", "properties": { "name": "La Rioja - P. Ortiz", "description": "6:35<br>8:05<br>9:35<br>11:20<br>12:50<br>14:20<br>15:50<br>17:20<br>19:05<br>20:35" }, "geometry": { "type": "Point", "coordinates": [ -63.2379588, -32.4016377 ] } },
{ "type": "Feature", "properties": { "name": "LA Rioja - Bv España", "description": null }, "geometry": { "type": "Point", "coordinates": [ -63.2428351, -32.4046621 ] } },
{ "type": "Feature", "properties": { "name": "La Rioja - L. de la Torre", "description": "06:40<br>8:10<br>9:40<br>11:25<br>12:55<br>14:25<br>15:55<br>17:25<br>19:10<br>20:40" }, "geometry": { "type": "Point", "coordinates": [ -63.2447207, -32.4059042 ] } },
{ "type": "Feature", "properties": { "name": "La Rioja - Gral. Paz", "description": null }, "geometry": { "type": "Point", "coordinates": [ -63.2468396, -32.4072584 ] } },
{ "type": "Feature", "properties": { "name": "escuela nicolas avellaneda", "description": null }, "geometry": { "type": "Point", "coordinates": [ -63.2300304, -32.40264 ] } },
{ "type": "Feature", "properties": { "name": "brandsen - bs as", "description": null }, "geometry": { "type": "Point", "coordinates": [ -63.2270838, -32.4007535 ] } },
{ "type": "Feature", "properties": { "name": "peña y ramiro suarez", "description": null }, "geometry": { "type": "Point", "coordinates": [ -63.2397044, -32.3964816 ] } },
{ "type": "Feature", "properties": { "name": "planes y suarez", "description": null }, "geometry": { "type": "Point", "coordinates": [ -63.2415323, -32.3978158 ] } },
{ "type": "Feature", "properties": { "name": "jujuy y planes", "description": null }, "geometry": { "type": "Point", "coordinates": [ -63.2394552, -32.4000334 ] } },
{ "type": "Feature", "properties": { "name": "Hipermercado", "description": "6:30<br>8:00<br>9:30<br>11:15<br>12:45<br>14:15<br>15:45<br>17:15<br>19:00<br>20:30" }, "geometry": { "type": "Point", "coordinates": [ -63.2421597, -32.3873098 ] } },
{ "type": "Feature", "properties": { "name": "maciel y arenales", "description": null }, "geometry": { "type": "Point", "coordinates": [ -63.2412972, -32.3912204 ] } },
{ "type": "Feature", "properties": { "name": "Centr de Transferencia", "description": "6:45<br>8:15<br>9:45<br>11:30<br>13:00<br>14:30<br>16:00<br>17:30<br>19:15<br>20:45" }, "geometry": { "type": "Point", "coordinates": [ -63.2461318, -32.410512 ] } }
]
}
