{
"type": "FeatureCollection",
"name": "linea_14",
"crs": { "type": "name", "properties": { "name": "urn:ogc:def:crs:OGC:1.3:CRS84" } },
"features": [
{ "type": "Feature", "properties": { "id": "linea_14.3", "nombre": "Linea14", "longitud": 9.78 }, "geometry": { "type": "MultiLineString", "coordinates": [ [ [ -63.2466532, -32.4097043, 0.0 ], [ -63.2420934, -32.414781, 0.0 ], [ -63.2365728, -32.4112749, 0.0 ], [ -63.2364715, -32.4112871, 0.0 ], [ -63.2364023, -32.4113672, 0.0 ], [ -63.2337274, -32.4096766, 0.0 ], [ -63.2328675, -32.4091437, 0.0 ], [ -63.2307951, -32.4078047, 0.0 ], [ -63.2242621, -32.4035903, 0.0 ], [ -63.2235111, -32.4044372, 0.0 ], [ -63.2229532, -32.4050848, 0.0 ], [ -63.2207968, -32.4074943, 0.0 ], [ -63.220947, -32.4076211, 0.0 ], [ -63.2223847, -32.4085812, 0.0 ], [ -63.2187796, -32.4085993, 0.0 ], [ -63.2161618, -32.4086174, 0.0 ], [ -63.2161189, -32.4078384, 0.0 ], [ -63.2147885, -32.4067696, 0.0 ], [ -63.2118918, -32.4068058, 0.0 ], [ -63.2118918, -32.4056011, 0.0 ], [ -63.211924, -32.4037804, 0.0 ], [ -63.2144077, -32.4037714, 0.0 ], [ -63.2144023, -32.4044145, 0.0 ], [ -63.2158292, -32.4044145, 0.0 ], [ -63.2166555, -32.4049399, 0.0 ], [ -63.2194771, -32.4019235, 0.0 ], [ -63.2235111, -32.4044372, 0.0 ], [ -63.2242621, -32.4035903, 0.0 ], [ -63.2362623, -32.4112057, 0.0 ], [ -63.2422651, -32.4044236, 0.0 ], [ -63.2479728, -32.4080921, 0.0 ], [ -63.2467176, -32.4096228, 0.0 ] ] ] } }
]
}
